{
  "type": "FeatureCollection",
  "features": [
    {
      "type": "Feature",
      "geometry": {
        "type": "Point",
        "coordinates": [
          16.702633,
          48.239161
        ]
      },
      "properties": {
        "label": "Zuckerfabrik Leopoldsdorf",
        "type": "Industrial building",
        "entity": "http://www.wikidata.org/entity/Q98651759",
        "country_qid": "Q533534",
        "Wikidata Qid": "Q98651759"
      }
    },
    {
      "type": "Feature",
      "geometry": {
        "type": "Point",
        "coordinates": [
          16.313154,
          48.086459
        ]
      },
      "properties": {
        "label": "Q123266337",
        "type": "Industrial building",
        "entity": "http://www.wikidata.org/entity/Q123266337",
        "country_qid": "Q533534",
        "Wikidata Qid": "Q123266337"
      }
    },
    {
      "type": "Feature",
      "geometry": {
        "type": "Point",
        "coordinates": [
          15.5875,
          48.404611111
        ]
      },
      "properties": {
        "label": "Tabakfabrik Krems-Stein",
        "type": "Industrial building",
        "entity": "http://www.wikidata.org/entity/Q104533832",
        "country_qid": "Q533534",
        "Wikidata Qid": "Q104533832"
      }
    },
    {
      "type": "Feature",
      "geometry": {
        "type": "Point",
        "coordinates": [
          16.234979322,
          48.080998949
        ]
      },
      "properties": {
        "label": "Q115051709",
        "type": "Industrial building",
        "entity": "http://www.wikidata.org/entity/Q115051709",
        "country_qid": "Q533534",
        "Wikidata Qid": "Q115051709"
      }
    },
    {
      "type": "Feature",
      "geometry": {
        "type": "Point",
        "coordinates": [
          16.938332,
          48.146655
        ]
      },
      "properties": {
        "label": "Hainburg Austria Tabakwerke",
        "type": "Industrial building",
        "entity": "http://www.wikidata.org/entity/Q70590153",
        "country_qid": "Q533534",
        "Wikidata Qid": "Q70590153"
      }
    },
    {
      "type": "Feature",
      "geometry": {
        "type": "Point",
        "coordinates": [
          16.754467,
          48.022857
        ]
      },
      "properties": {
        "label": "Q97602026",
        "type": "Industrial building",
        "entity": "http://www.wikidata.org/entity/Q97602026",
        "country_qid": "Q533534",
        "Wikidata Qid": "Q97602026"
      }
    },
    {
      "type": "Feature",
      "geometry": {
        "type": "Point",
        "coordinates": [
          14.311743,
          46.618976
        ]
      },
      "properties": {
        "label": "Q106044900",
        "type": "Industrial building",
        "entity": "http://www.wikidata.org/entity/Q106044900",
        "country_qid": "Q533534",
        "Wikidata Qid": "Q106044900"
      }
    },
    {
      "type": "Feature",
      "geometry": {
        "type": "Point",
        "coordinates": [
          13.229022222,
          48.249258333
        ]
      },
      "properties": {
        "label": "Brauerei Raschhofer",
        "type": "Industrial building",
        "entity": "http://www.wikidata.org/entity/Q126520355",
        "country_qid": "Q533534",
        "Wikidata Qid": "Q126520355"
      }
    },
    {
      "type": "Feature",
      "geometry": {
        "type": "Point",
        "coordinates": [
          16.302909961,
          48.021338728
        ]
      },
      "properties": {
        "label": "Rothmühle",
        "type": "Industrial building",
        "entity": "http://www.wikidata.org/entity/Q116325111",
        "country_qid": "Q533534",
        "Wikidata Qid": "Q116325111"
      }
    },
    {
      "type": "Feature",
      "geometry": {
        "type": "Point",
        "coordinates": [
          16.241149739,
          48.007021599
        ]
      },
      "properties": {
        "label": "Schäfflermühle",
        "type": "Industrial building",
        "entity": "http://www.wikidata.org/entity/Q116317220",
        "country_qid": "Q533534",
        "Wikidata Qid": "Q116317220"
      }
    }
  ]
}