{
  "type": "FeatureCollection",
  "features": [
    {
      "type": "Feature",
      "geometry": {
        "type": "Point",
        "coordinates": [
          16.247992,
          48.006504
        ]
      },
      "properties": {
        "label": "Leesdorfer Paper Mill",
        "type": "Industrial building",
        "entity": "http://www.wikidata.org/entity/Q97666096",
        "country_qid": "Q3624335",
        "Wikidata Qid": "Q97666096"
      }
    },
    {
      "type": "Feature",
      "geometry": {
        "type": "Point",
        "coordinates": [
          16.228972814,
          48.007859534
        ]
      },
      "properties": {
        "label": "Q115052207",
        "type": "Industrial building",
        "entity": "http://www.wikidata.org/entity/Q115052207",
        "country_qid": "Q3624335",
        "Wikidata Qid": "Q115052207"
      }
    },
    {
      "type": "Feature",
      "geometry": {
        "type": "Point",
        "coordinates": [
          16.250744,
          48.007894
        ]
      },
      "properties": {
        "label": "Leesdorfer Hofmühle",
        "type": "Industrial building",
        "entity": "http://www.wikidata.org/entity/Q98446661",
        "country_qid": "Q3624335",
        "Wikidata Qid": "Q98446661"
      }
    },
    {
      "type": "Feature",
      "geometry": {
        "type": "Point",
        "coordinates": [
          16.230878144,
          48.006869526
        ]
      },
      "properties": {
        "label": "Q115052315",
        "type": "Industrial building",
        "entity": "http://www.wikidata.org/entity/Q115052315",
        "country_qid": "Q3624335",
        "Wikidata Qid": "Q115052315"
      }
    },
    {
      "type": "Feature",
      "geometry": {
        "type": "Point",
        "coordinates": [
          16.227145833,
          48.008389122
        ]
      },
      "properties": {
        "label": "Q115051990",
        "type": "Industrial building",
        "entity": "http://www.wikidata.org/entity/Q115051990",
        "country_qid": "Q3624335",
        "Wikidata Qid": "Q115051990"
      }
    },
    {
      "type": "Feature",
      "geometry": {
        "type": "Point",
        "coordinates": [
          16.244551135,
          48.007285732
        ]
      },
      "properties": {
        "label": "Huppmannmühle",
        "type": "Industrial building",
        "entity": "http://www.wikidata.org/entity/Q116318376",
        "country_qid": "Q3624335",
        "Wikidata Qid": "Q116318376"
      }
    }
  ]
}