{
  "type": "FeatureCollection",
  "features": [
    {
      "type": "Feature",
      "geometry": {
        "type": "Point",
        "coordinates": [
          4.36066,
          52.0076
        ]
      },
      "properties": {
        "label": "De Drie Posteleyne Astonne",
        "type": "Industrial building",
        "entity": "http://www.wikidata.org/entity/Q64498334",
        "country_qid": "Q170072",
        "Wikidata Qid": "Q64498334"
      }
    },
    {
      "type": "Feature",
      "geometry": {
        "type": "Point",
        "coordinates": [
          4.36069,
          52.0075
        ]
      },
      "properties": {
        "label": "De Metaale Pot",
        "type": "Industrial building",
        "entity": "http://www.wikidata.org/entity/Q38513095",
        "country_qid": "Q170072",
        "Wikidata Qid": "Q38513095"
      }
    },
    {
      "type": "Feature",
      "geometry": {
        "type": "Point",
        "coordinates": [
          4.36233,
          52.0086
        ]
      },
      "properties": {
        "label": "Het Moriaanshooft",
        "type": "Industrial building",
        "entity": "http://www.wikidata.org/entity/Q38571288",
        "country_qid": "Q170072",
        "Wikidata Qid": "Q38571288"
      }
    },
    {
      "type": "Feature",
      "geometry": {
        "type": "Point",
        "coordinates": [
          4.36382,
          52.0096
        ]
      },
      "properties": {
        "label": "Three Porcelain Bottles factory",
        "type": "Industrial building",
        "entity": "http://www.wikidata.org/entity/Q64498588",
        "country_qid": "Q170072",
        "Wikidata Qid": "Q64498588"
      }
    },
    {
      "type": "Feature",
      "geometry": {
        "type": "Point",
        "coordinates": [
          4.36039,
          52.006
        ]
      },
      "properties": {
        "label": "De Witte Ster",
        "type": "Industrial building",
        "entity": "http://www.wikidata.org/entity/Q64498429",
        "country_qid": "Q170072",
        "Wikidata Qid": "Q64498429"
      }
    },
    {
      "type": "Feature",
      "geometry": {
        "type": "Point",
        "coordinates": [
          4.36286,
          52.0092
        ]
      },
      "properties": {
        "label": "De Porceleyne Byl",
        "type": "Industrial building",
        "entity": "http://www.wikidata.org/entity/Q64495116",
        "country_qid": "Q170072",
        "Wikidata Qid": "Q64495116"
      }
    },
    {
      "type": "Feature",
      "geometry": {
        "type": "Point",
        "coordinates": [
          4.36311,
          52.0109
        ]
      },
      "properties": {
        "label": "De Twee Scheepjes",
        "type": "Industrial building",
        "entity": "http://www.wikidata.org/entity/Q38513099",
        "country_qid": "Q170072",
        "Wikidata Qid": "Q38513099"
      }
    },
    {
      "type": "Feature",
      "geometry": {
        "type": "Point",
        "coordinates": [
          4.3622,
          52.0124
        ]
      },
      "properties": {
        "label": "De Dubbele Schenkkan",
        "type": "Industrial building",
        "entity": "http://www.wikidata.org/entity/Q64498070",
        "country_qid": "Q170072",
        "Wikidata Qid": "Q64498070"
      }
    },
    {
      "type": "Feature",
      "geometry": {
        "type": "Point",
        "coordinates": [
          4.35305,
          52.0152
        ]
      },
      "properties": {
        "label": "De Roos",
        "type": "Industrial building",
        "entity": "http://www.wikidata.org/entity/Q64498669",
        "country_qid": "Q170072",
        "Wikidata Qid": "Q64498669"
      }
    },
    {
      "type": "Feature",
      "geometry": {
        "type": "Point",
        "coordinates": [
          4.36011,
          52.0084
        ]
      },
      "properties": {
        "label": "De Porceleyne Clauw",
        "type": "Industrial building",
        "entity": "http://www.wikidata.org/entity/Q64498375",
        "country_qid": "Q170072",
        "Wikidata Qid": "Q64498375"
      }
    },
    {
      "type": "Feature",
      "geometry": {
        "type": "Point",
        "coordinates": [
          4.36282,
          52.0126
        ]
      },
      "properties": {
        "label": "De Lampetkan",
        "type": "Industrial building",
        "entity": "http://www.wikidata.org/entity/Q64498158",
        "country_qid": "Q170072",
        "Wikidata Qid": "Q64498158"
      }
    },
    {
      "type": "Feature",
      "geometry": {
        "type": "Point",
        "coordinates": [
          4.36362,
          52.0111
        ]
      },
      "properties": {
        "label": "De Porceleyne Schotel",
        "type": "Industrial building",
        "entity": "http://www.wikidata.org/entity/Q64498210",
        "country_qid": "Q170072",
        "Wikidata Qid": "Q64498210"
      }
    },
    {
      "type": "Feature",
      "geometry": {
        "type": "Point",
        "coordinates": [
          4.36089,
          52.0071
        ]
      },
      "properties": {
        "label": "'t Fortuyn",
        "type": "Industrial building",
        "entity": "http://www.wikidata.org/entity/Q64498481",
        "country_qid": "Q170072",
        "Wikidata Qid": "Q64498481"
      }
    },
    {
      "type": "Feature",
      "geometry": {
        "type": "Point",
        "coordinates": [
          4.45035,
          51.905691666
        ]
      },
      "properties": {
        "label": "De Waakzaamheid (Rotterdam)",
        "type": "Industrial building",
        "entity": "http://www.wikidata.org/entity/Q134553281",
        "country_qid": "Q170072",
        "Wikidata Qid": "Q134553281"
      }
    },
    {
      "type": "Feature",
      "geometry": {
        "type": "Point",
        "coordinates": [
          4.35942,
          52.008
        ]
      },
      "properties": {
        "label": "De Paauw",
        "type": "Industrial building",
        "entity": "http://www.wikidata.org/entity/Q64498266",
        "country_qid": "Q170072",
        "Wikidata Qid": "Q64498266"
      }
    }
  ]
}