{
  "type": "FeatureCollection",
  "features": [
    {
      "type": "Feature",
      "geometry": {
        "type": "Point",
        "coordinates": [
          8.544603,
          50.102945
        ]
      },
      "properties": {
        "label": "third station building Frankfurt-Höchst",
        "type": "Industrial building",
        "entity": "http://www.wikidata.org/entity/Q105476118",
        "country_qid": "Q43287",
        "Wikidata Qid": "Q105476118"
      }
    },
    {
      "type": "Feature",
      "geometry": {
        "type": "Point",
        "coordinates": [
          9.147247,
          49.304697
        ]
      },
      "properties": {
        "label": "Q2139679",
        "type": "Industrial building",
        "entity": "http://www.wikidata.org/entity/Q2139679",
        "country_qid": "Q43287",
        "Wikidata Qid": "Q2139679"
      }
    },
    {
      "type": "Feature",
      "geometry": {
        "type": "Point",
        "coordinates": [
          13.466605068,
          52.516486898
        ]
      },
      "properties": {
        "label": "Q123223147",
        "type": "Industrial building",
        "entity": "http://www.wikidata.org/entity/Q123223147",
        "country_qid": "Q43287",
        "Wikidata Qid": "Q123223147"
      }
    },
    {
      "type": "Feature",
      "geometry": {
        "type": "Point",
        "coordinates": [
          13.357935054,
          52.574633352
        ]
      },
      "properties": {
        "label": "Q123760408",
        "type": "Industrial building",
        "entity": "http://www.wikidata.org/entity/Q123760408",
        "country_qid": "Q43287",
        "Wikidata Qid": "Q123760408"
      }
    },
    {
      "type": "Feature",
      "geometry": {
        "type": "Point",
        "coordinates": [
          13.364032431,
          52.582602964
        ]
      },
      "properties": {
        "label": "Gummifabrik Behrendt & Co.",
        "type": "Industrial building",
        "entity": "http://www.wikidata.org/entity/Q118187171",
        "country_qid": "Q43287",
        "Wikidata Qid": "Q118187171"
      }
    },
    {
      "type": "Feature",
      "geometry": {
        "type": "Point",
        "coordinates": [
          13.7086,
          51.0422
        ]
      },
      "properties": {
        "label": "Q1723859",
        "type": "Industrial building",
        "entity": "http://www.wikidata.org/entity/Q1723859",
        "country_qid": "Q43287",
        "Wikidata Qid": "Q1723859"
      }
    },
    {
      "type": "Feature",
      "geometry": {
        "type": "Point",
        "coordinates": [
          13.36513476,
          52.503001517
        ]
      },
      "properties": {
        "label": "Atelier Victoria",
        "type": "Industrial building",
        "entity": "http://www.wikidata.org/entity/Q62627743",
        "country_qid": "Q43287",
        "Wikidata Qid": "Q62627743"
      }
    }
  ]
}