{
  "type": "FeatureCollection",
  "features": [
    {
      "type": "Feature",
      "geometry": {
        "type": "Point",
        "coordinates": [
          13.70959,
          51.01517
        ]
      },
      "properties": {
        "label": "Feldschlößchen",
        "type": "Industrial building",
        "entity": "http://www.wikidata.org/entity/Q1402818",
        "country_qid": "Q16957",
        "Wikidata Qid": "Q1402818"
      }
    },
    {
      "type": "Feature",
      "geometry": {
        "type": "Point",
        "coordinates": [
          12.506019,
          52.416767
        ]
      },
      "properties": {
        "label": "Q130611054",
        "type": "Industrial building",
        "entity": "http://www.wikidata.org/entity/Q130611054",
        "country_qid": "Q16957",
        "Wikidata Qid": "Q130611054"
      }
    },
    {
      "type": "Feature",
      "geometry": {
        "type": "Point",
        "coordinates": [
          11.058404,
          50.724559
        ]
      },
      "properties": {
        "label": "Q900376",
        "type": "Industrial building",
        "entity": "http://www.wikidata.org/entity/Q900376",
        "country_qid": "Q16957",
        "Wikidata Qid": "Q900376"
      }
    },
    {
      "type": "Feature",
      "geometry": {
        "type": "Point",
        "coordinates": [
          12.64583333,
          51.46361111
        ]
      },
      "properties": {
        "label": "Eilenburger Chemiewerk",
        "type": "Industrial building",
        "entity": "http://www.wikidata.org/entity/Q1304015",
        "country_qid": "Q16957",
        "Wikidata Qid": "Q1304015"
      }
    },
    {
      "type": "Feature",
      "geometry": {
        "type": "Point",
        "coordinates": [
          12.328463,
          51.516468
        ]
      },
      "properties": {
        "label": "Q227835",
        "type": "Industrial building",
        "entity": "http://www.wikidata.org/entity/Q227835",
        "country_qid": "Q16957",
        "Wikidata Qid": "Q227835"
      }
    },
    {
      "type": "Feature",
      "geometry": {
        "type": "Point",
        "coordinates": [
          11.434896111,
          50.654966944
        ]
      },
      "properties": {
        "label": "Maxhütte Unterwellenborn",
        "type": "Industrial building",
        "entity": "http://www.wikidata.org/entity/Q1913776",
        "country_qid": "Q16957",
        "Wikidata Qid": "Q1913776"
      }
    },
    {
      "type": "Feature",
      "geometry": {
        "type": "Point",
        "coordinates": [
          12.80752,
          52.88925
        ]
      },
      "properties": {
        "label": "Elektro-Physikalische Werke Neuruppin",
        "type": "Industrial building",
        "entity": "http://www.wikidata.org/entity/Q113519388",
        "country_qid": "Q16957",
        "Wikidata Qid": "Q113519388"
      }
    },
    {
      "type": "Feature",
      "geometry": {
        "type": "Point",
        "coordinates": [
          12.447611111,
          50.710694444
        ]
      },
      "properties": {
        "label": "Reichsbahnausbesserungswerk Zwickau",
        "type": "Industrial building",
        "entity": "http://www.wikidata.org/entity/Q111601902",
        "country_qid": "Q16957",
        "Wikidata Qid": "Q111601902"
      }
    },
    {
      "type": "Feature",
      "geometry": {
        "type": "Point",
        "coordinates": [
          14.34286,
          51.33777
        ]
      },
      "properties": {
        "label": "Kaolinwerk Caminau",
        "type": "Industrial building",
        "entity": "http://www.wikidata.org/entity/Q1728273",
        "country_qid": "Q16957",
        "Wikidata Qid": "Q1728273"
      }
    },
    {
      "type": "Feature",
      "geometry": {
        "type": "Point",
        "coordinates": [
          12.38363,
          51.315673
        ]
      },
      "properties": {
        "label": "Schlachthof Leipzig",
        "type": "Industrial building",
        "entity": "http://www.wikidata.org/entity/Q2237843",
        "country_qid": "Q16957",
        "Wikidata Qid": "Q2237843"
      }
    },
    {
      "type": "Feature",
      "geometry": {
        "type": "Point",
        "coordinates": [
          11.75944444,
          52.01555556
        ]
      },
      "properties": {
        "label": "Traktorenwerk Schönebeck",
        "type": "Industrial building",
        "entity": "http://www.wikidata.org/entity/Q2448483",
        "country_qid": "Q16957",
        "Wikidata Qid": "Q2448483"
      }
    },
    {
      "type": "Feature",
      "geometry": {
        "type": "Point",
        "coordinates": [
          12.426016513,
          51.369028913
        ]
      },
      "properties": {
        "label": "VEB Leipziger Metallhütte",
        "type": "Industrial building",
        "entity": "http://www.wikidata.org/entity/Q122942711",
        "country_qid": "Q16957",
        "Wikidata Qid": "Q122942711"
      }
    },
    {
      "type": "Feature",
      "geometry": {
        "type": "Point",
        "coordinates": [
          12.0,
          51.285
        ]
      },
      "properties": {
        "label": "Total Refinery Mitteldeutschland",
        "type": "Industrial building",
        "entity": "http://www.wikidata.org/entity/Q111976857",
        "country_qid": "Q16957",
        "Wikidata Qid": "Q111976857"
      }
    },
    {
      "type": "Feature",
      "geometry": {
        "type": "Point",
        "coordinates": [
          10.939722,
          50.678333
        ]
      },
      "properties": {
        "label": "Langshütte",
        "type": "Industrial building",
        "entity": "http://www.wikidata.org/entity/Q1589141",
        "country_qid": "Q16957",
        "Wikidata Qid": "Q1589141"
      }
    },
    {
      "type": "Feature",
      "geometry": {
        "type": "Point",
        "coordinates": [
          11.03555556,
          50.54805556
        ]
      },
      "properties": {
        "label": "Q1396314",
        "type": "Industrial building",
        "entity": "http://www.wikidata.org/entity/Q1396314",
        "country_qid": "Q16957",
        "Wikidata Qid": "Q1396314"
      }
    },
    {
      "type": "Feature",
      "geometry": {
        "type": "Point",
        "coordinates": [
          11.3317,
          50.9927
        ]
      },
      "properties": {
        "label": "Weimar-Werk",
        "type": "Industrial building",
        "entity": "http://www.wikidata.org/entity/Q2555693",
        "country_qid": "Q16957",
        "Wikidata Qid": "Q2555693"
      }
    },
    {
      "type": "Feature",
      "geometry": {
        "type": "Point",
        "coordinates": [
          14.24,
          53.1
        ]
      },
      "properties": {
        "label": "PCK refinery",
        "type": "Industrial building",
        "entity": "http://www.wikidata.org/entity/Q14524622",
        "country_qid": "Q16957",
        "Wikidata Qid": "Q14524622"
      }
    },
    {
      "type": "Feature",
      "geometry": {
        "type": "Point",
        "coordinates": [
          10.96361111,
          50.67472222
        ]
      },
      "properties": {
        "label": "Porzellanfabrik Reinhold Schlegelmilch",
        "type": "Industrial building",
        "entity": "http://www.wikidata.org/entity/Q2105512",
        "country_qid": "Q16957",
        "Wikidata Qid": "Q2105512"
      }
    },
    {
      "type": "Feature",
      "geometry": {
        "type": "Point",
        "coordinates": [
          12.327146359,
          51.329630108
        ]
      },
      "properties": {
        "label": "VVB Gießereien Leipzig",
        "type": "Industrial building",
        "entity": "http://www.wikidata.org/entity/Q122943370",
        "country_qid": "Q16957",
        "Wikidata Qid": "Q122943370"
      }
    },
    {
      "type": "Feature",
      "geometry": {
        "type": "Point",
        "coordinates": [
          13.511016,
          51.157869
        ]
      },
      "properties": {
        "label": "Meißner Schuhfabrik",
        "type": "Industrial building",
        "entity": "http://www.wikidata.org/entity/Q1734630",
        "country_qid": "Q16957",
        "Wikidata Qid": "Q1734630"
      }
    },
    {
      "type": "Feature",
      "geometry": {
        "type": "Point",
        "coordinates": [
          13.6586,
          51.04008
        ]
      },
      "properties": {
        "label": "DEFA-Studio für Trickfilme",
        "type": "Industrial building",
        "entity": "http://www.wikidata.org/entity/Q23830014",
        "country_qid": "Q16957",
        "Wikidata Qid": "Q23830014"
      }
    },
    {
      "type": "Feature",
      "geometry": {
        "type": "Point",
        "coordinates": [
          12.09339,
          51.95485
        ]
      },
      "properties": {
        "label": "EMAG Zerbst Maschinenfabrik GmbH",
        "type": "Industrial building",
        "entity": "http://www.wikidata.org/entity/Q2560582",
        "country_qid": "Q16957",
        "Wikidata Qid": "Q2560582"
      }
    },
    {
      "type": "Feature",
      "geometry": {
        "type": "Point",
        "coordinates": [
          12.98795,
          51.56027
        ]
      },
      "properties": {
        "label": "Brauerei Torgau",
        "type": "Industrial building",
        "entity": "http://www.wikidata.org/entity/Q113506218",
        "country_qid": "Q16957",
        "Wikidata Qid": "Q113506218"
      }
    },
    {
      "type": "Feature",
      "geometry": {
        "type": "Point",
        "coordinates": [
          13.648274,
          51.006609
        ]
      },
      "properties": {
        "label": "Brauerei Freital",
        "type": "Industrial building",
        "entity": "http://www.wikidata.org/entity/Q900193",
        "country_qid": "Q16957",
        "Wikidata Qid": "Q900193"
      }
    },
    {
      "type": "Feature",
      "geometry": {
        "type": "Point",
        "coordinates": [
          11.662758,
          52.081552
        ]
      },
      "properties": {
        "label": "Q1660481",
        "type": "Industrial building",
        "entity": "http://www.wikidata.org/entity/Q1660481",
        "country_qid": "Q16957",
        "Wikidata Qid": "Q1660481"
      }
    },
    {
      "type": "Feature",
      "geometry": {
        "type": "Point",
        "coordinates": [
          11.67720278,
          52.17733056
        ]
      },
      "properties": {
        "label": "Shipyard Edgar Andre",
        "type": "Industrial building",
        "entity": "http://www.wikidata.org/entity/Q15635042",
        "country_qid": "Q16957",
        "Wikidata Qid": "Q15635042"
      }
    },
    {
      "type": "Feature",
      "geometry": {
        "type": "Point",
        "coordinates": [
          13.7019,
          51.054
        ]
      },
      "properties": {
        "label": "Reichsbahnausbesserungswerk Dresden",
        "type": "Industrial building",
        "entity": "http://www.wikidata.org/entity/Q2139374",
        "country_qid": "Q16957",
        "Wikidata Qid": "Q2139374"
      }
    },
    {
      "type": "Feature",
      "geometry": {
        "type": "Point",
        "coordinates": [
          13.007578,
          51.554464
        ]
      },
      "properties": {
        "label": "VEB Steingutwerk Torgau",
        "type": "Industrial building",
        "entity": "http://www.wikidata.org/entity/Q70570541",
        "country_qid": "Q16957",
        "Wikidata Qid": "Q70570541"
      }
    },
    {
      "type": "Feature",
      "geometry": {
        "type": "Point",
        "coordinates": [
          10.39138889,
          50.95638889
        ]
      },
      "properties": {
        "label": "Q2079923",
        "type": "Industrial building",
        "entity": "http://www.wikidata.org/entity/Q2079923",
        "country_qid": "Q16957",
        "Wikidata Qid": "Q2079923"
      }
    },
    {
      "type": "Feature",
      "geometry": {
        "type": "Point",
        "coordinates": [
          11.085,
          50.776
        ]
      },
      "properties": {
        "label": "Q1924962",
        "type": "Industrial building",
        "entity": "http://www.wikidata.org/entity/Q1924962",
        "country_qid": "Q16957",
        "Wikidata Qid": "Q1924962"
      }
    },
    {
      "type": "Feature",
      "geometry": {
        "type": "Point",
        "coordinates": [
          11.016196,
          50.960529
        ]
      },
      "properties": {
        "label": "Gebrüder Treitschke",
        "type": "Industrial building",
        "entity": "http://www.wikidata.org/entity/Q21685518",
        "country_qid": "Q16957",
        "Wikidata Qid": "Q21685518"
      }
    },
    {
      "type": "Feature",
      "geometry": {
        "type": "Point",
        "coordinates": [
          12.9382,
          50.8559
        ]
      },
      "properties": {
        "label": "Reichsbahnausbesserungswerk Chemnitz",
        "type": "Industrial building",
        "entity": "http://www.wikidata.org/entity/Q2139372",
        "country_qid": "Q16957",
        "Wikidata Qid": "Q2139372"
      }
    },
    {
      "type": "Feature",
      "geometry": {
        "type": "Point",
        "coordinates": [
          10.7091,
          53.37587
        ]
      },
      "properties": {
        "label": "Elbewerft Boizenburg",
        "type": "Industrial building",
        "entity": "http://www.wikidata.org/entity/Q329553",
        "country_qid": "Q16957",
        "Wikidata Qid": "Q329553"
      }
    },
    {
      "type": "Feature",
      "geometry": {
        "type": "Point",
        "coordinates": [
          10.28027778,
          51.07194444
        ]
      },
      "properties": {
        "label": "Q2299421",
        "type": "Industrial building",
        "entity": "http://www.wikidata.org/entity/Q2299421",
        "country_qid": "Q16957",
        "Wikidata Qid": "Q2299421"
      }
    },
    {
      "type": "Feature",
      "geometry": {
        "type": "Point",
        "coordinates": [
          12.9864468,
          51.5582406
        ]
      },
      "properties": {
        "label": "VEB Papierverarbeitung Torgau",
        "type": "Industrial building",
        "entity": "http://www.wikidata.org/entity/Q113458582",
        "country_qid": "Q16957",
        "Wikidata Qid": "Q113458582"
      }
    },
    {
      "type": "Feature",
      "geometry": {
        "type": "Point",
        "coordinates": [
          14.500639,
          52.322521
        ]
      },
      "properties": {
        "label": "Halbleiterwerk Frankfurt (Oder)",
        "type": "Industrial building",
        "entity": "http://www.wikidata.org/entity/Q1332259",
        "country_qid": "Q16957",
        "Wikidata Qid": "Q1332259"
      }
    }
  ]
}