{
  "type": "FeatureCollection",
  "features": [
    {
      "type": "Feature",
      "geometry": {
        "type": "Point",
        "coordinates": [
          12.986446805,
          51.558240611
        ]
      },
      "properties": {
        "label": "F. H. Schmidt Briefumschlag-Papier-Ausstattungs-Fabrik AG Torgau",
        "type": "Industrial building",
        "entity": "http://www.wikidata.org/entity/Q113458901",
        "country_qid": "Q7318",
        "Wikidata Qid": "Q113458901"
      }
    },
    {
      "type": "Feature",
      "geometry": {
        "type": "Point",
        "coordinates": [
          13.379154587,
          52.567664038
        ]
      },
      "properties": {
        "label": "Ostdeutsche Spritfabrik GmbH",
        "type": "Industrial building",
        "entity": "http://www.wikidata.org/entity/Q118091674",
        "country_qid": "Q7318",
        "Wikidata Qid": "Q118091674"
      }
    },
    {
      "type": "Feature",
      "geometry": {
        "type": "Point",
        "coordinates": [
          10.23088889,
          53.42592611
        ]
      },
      "properties": {
        "label": "Q13583396",
        "type": "Industrial building",
        "entity": "http://www.wikidata.org/entity/Q13583396",
        "country_qid": "Q7318",
        "Wikidata Qid": "Q13583396"
      }
    },
    {
      "type": "Feature",
      "geometry": {
        "type": "Point",
        "coordinates": [
          8.998261571,
          49.680256145
        ]
      },
      "properties": {
        "label": "Continental-Gelatine-Industrie",
        "type": "Industrial building",
        "entity": "http://www.wikidata.org/entity/Q125869182",
        "country_qid": "Q7318",
        "Wikidata Qid": "Q125869182"
      }
    },
    {
      "type": "Feature",
      "geometry": {
        "type": "Point",
        "coordinates": [
          9.9280671,
          52.2852593
        ]
      },
      "properties": {
        "label": "Heeresmunitionsanstalt Sehnde",
        "type": "Industrial building",
        "entity": "http://www.wikidata.org/entity/Q125317026",
        "country_qid": "Q7318",
        "Wikidata Qid": "Q125317026"
      }
    }
  ]
}