{
  "type": "FeatureCollection",
  "features": [
    {
      "type": "Feature",
      "geometry": {
        "type": "Point",
        "coordinates": [
          20.466666666,
          53.65
        ]
      },
      "properties": {
        "label": "Glashütte Gelguhnen",
        "type": "Industrial building",
        "entity": "http://www.wikidata.org/entity/Q56682440",
        "country_qid": "Q38872",
        "Wikidata Qid": "Q56682440"
      }
    },
    {
      "type": "Feature",
      "geometry": {
        "type": "Point",
        "coordinates": [
          8.547747,
          50.103131
        ]
      },
      "properties": {
        "label": "second station building Frankfurt-Höchst",
        "type": "Industrial building",
        "entity": "http://www.wikidata.org/entity/Q105476169",
        "country_qid": "Q38872",
        "Wikidata Qid": "Q105476169"
      }
    }
  ]
}