{
  "type": "FeatureCollection",
  "features": [
    {
      "type": "Feature",
      "geometry": {
        "type": "Point",
        "coordinates": [
          23.756172,
          61.493839
        ]
      },
      "properties": {
        "label": "Tammer Factories",
        "type": "Industrial building",
        "entity": "http://www.wikidata.org/entity/Q18662229",
        "country_qid": "Q34266",
        "Wikidata Qid": "Q18662229"
      }
    },
    {
      "type": "Feature",
      "geometry": {
        "type": "Point",
        "coordinates": [
          23.736111111,
          61.504166666
        ]
      },
      "properties": {
        "label": "Onkiniemi Brewery",
        "type": "Industrial building",
        "entity": "http://www.wikidata.org/entity/Q76385931",
        "country_qid": "Q34266",
        "Wikidata Qid": "Q76385931"
      }
    },
    {
      "type": "Feature",
      "geometry": {
        "type": "Point",
        "coordinates": [
          23.748132,
          61.494574
        ]
      },
      "properties": {
        "label": "Q76386005",
        "type": "Industrial building",
        "entity": "http://www.wikidata.org/entity/Q76386005",
        "country_qid": "Q34266",
        "Wikidata Qid": "Q76386005"
      }
    },
    {
      "type": "Feature",
      "geometry": {
        "type": "Point",
        "coordinates": [
          50.936201,
          56.176168
        ]
      },
      "properties": {
        "label": "Q102124729",
        "type": "Industrial building",
        "entity": "http://www.wikidata.org/entity/Q102124729",
        "country_qid": "Q34266",
        "Wikidata Qid": "Q102124729"
      }
    },
    {
      "type": "Feature",
      "geometry": {
        "type": "Point",
        "coordinates": [
          23.762765,
          61.497466
        ]
      },
      "properties": {
        "label": "Q76385915",
        "type": "Industrial building",
        "entity": "http://www.wikidata.org/entity/Q76385915",
        "country_qid": "Q34266",
        "Wikidata Qid": "Q76385915"
      }
    },
    {
      "type": "Feature",
      "geometry": {
        "type": "Point",
        "coordinates": [
          23.756724138,
          61.492977527
        ]
      },
      "properties": {
        "label": "Q78762814",
        "type": "Industrial building",
        "entity": "http://www.wikidata.org/entity/Q78762814",
        "country_qid": "Q34266",
        "Wikidata Qid": "Q78762814"
      }
    },
    {
      "type": "Feature",
      "geometry": {
        "type": "Point",
        "coordinates": [
          23.724308055,
          61.493263055
        ]
      },
      "properties": {
        "label": "Q97343618",
        "type": "Industrial building",
        "entity": "http://www.wikidata.org/entity/Q97343618",
        "country_qid": "Q34266",
        "Wikidata Qid": "Q97343618"
      }
    },
    {
      "type": "Feature",
      "geometry": {
        "type": "Point",
        "coordinates": [
          23.753368685,
          61.504965363
        ]
      },
      "properties": {
        "label": "Q56401458",
        "type": "Industrial building",
        "entity": "http://www.wikidata.org/entity/Q56401458",
        "country_qid": "Q34266",
        "Wikidata Qid": "Q56401458"
      }
    },
    {
      "type": "Feature",
      "geometry": {
        "type": "Point",
        "coordinates": [
          23.783387,
          61.503338
        ]
      },
      "properties": {
        "label": "Q65233508",
        "type": "Industrial building",
        "entity": "http://www.wikidata.org/entity/Q65233508",
        "country_qid": "Q34266",
        "Wikidata Qid": "Q65233508"
      }
    },
    {
      "type": "Feature",
      "geometry": {
        "type": "Point",
        "coordinates": [
          23.75983,
          61.495625
        ]
      },
      "properties": {
        "label": "Q85486944",
        "type": "Industrial building",
        "entity": "http://www.wikidata.org/entity/Q85486944",
        "country_qid": "Q34266",
        "Wikidata Qid": "Q85486944"
      }
    },
    {
      "type": "Feature",
      "geometry": {
        "type": "Point",
        "coordinates": [
          23.75050573,
          61.500295959
        ]
      },
      "properties": {
        "label": "Hemindustri Trikotfabriken",
        "type": "Industrial building",
        "entity": "http://www.wikidata.org/entity/Q85484125",
        "country_qid": "Q34266",
        "Wikidata Qid": "Q85484125"
      }
    },
    {
      "type": "Feature",
      "geometry": {
        "type": "Point",
        "coordinates": [
          50.7322,
          55.966831
        ]
      },
      "properties": {
        "label": "Q106838039",
        "type": "Industrial building",
        "entity": "http://www.wikidata.org/entity/Q106838039",
        "country_qid": "Q34266",
        "Wikidata Qid": "Q106838039"
      }
    },
    {
      "type": "Feature",
      "geometry": {
        "type": "Point",
        "coordinates": [
          56.604228,
          57.669304
        ]
      },
      "properties": {
        "label": "Q102042249",
        "type": "Industrial building",
        "entity": "http://www.wikidata.org/entity/Q102042249",
        "country_qid": "Q34266",
        "Wikidata Qid": "Q102042249"
      }
    },
    {
      "type": "Feature",
      "geometry": {
        "type": "Point",
        "coordinates": [
          23.724165,
          61.492301
        ]
      },
      "properties": {
        "label": "The Scotch Tweed Manufacturing Company",
        "type": "Industrial building",
        "entity": "http://www.wikidata.org/entity/Q97342412",
        "country_qid": "Q34266",
        "Wikidata Qid": "Q97342412"
      }
    },
    {
      "type": "Feature",
      "geometry": {
        "type": "Point",
        "coordinates": [
          23.723261,
          61.503042
        ]
      },
      "properties": {
        "label": "Q76385955",
        "type": "Industrial building",
        "entity": "http://www.wikidata.org/entity/Q76385955",
        "country_qid": "Q34266",
        "Wikidata Qid": "Q76385955"
      }
    },
    {
      "type": "Feature",
      "geometry": {
        "type": "Point",
        "coordinates": [
          23.73314,
          61.5027
        ]
      },
      "properties": {
        "label": "Akkunaverho ja paitatehdas Oy",
        "type": "Industrial building",
        "entity": "http://www.wikidata.org/entity/Q79081817",
        "country_qid": "Q34266",
        "Wikidata Qid": "Q79081817"
      }
    },
    {
      "type": "Feature",
      "geometry": {
        "type": "Point",
        "coordinates": [
          23.75935,
          61.492371
        ]
      },
      "properties": {
        "label": "Q98814806",
        "type": "Industrial building",
        "entity": "http://www.wikidata.org/entity/Q98814806",
        "country_qid": "Q34266",
        "Wikidata Qid": "Q98814806"
      }
    },
    {
      "type": "Feature",
      "geometry": {
        "type": "Point",
        "coordinates": [
          54.348317894,
          54.182909539
        ]
      },
      "properties": {
        "label": "Q109726866",
        "type": "Industrial building",
        "entity": "http://www.wikidata.org/entity/Q109726866",
        "country_qid": "Q34266",
        "Wikidata Qid": "Q109726866"
      }
    },
    {
      "type": "Feature",
      "geometry": {
        "type": "Point",
        "coordinates": [
          23.752839111,
          61.490216416
        ]
      },
      "properties": {
        "label": "Q78760788",
        "type": "Industrial building",
        "entity": "http://www.wikidata.org/entity/Q78760788",
        "country_qid": "Q34266",
        "Wikidata Qid": "Q78760788"
      }
    },
    {
      "type": "Feature",
      "geometry": {
        "type": "Point",
        "coordinates": [
          49.1142454,
          55.7970667
        ]
      },
      "properties": {
        "label": "Q66110659",
        "type": "Industrial building",
        "entity": "http://www.wikidata.org/entity/Q66110659",
        "country_qid": "Q34266",
        "Wikidata Qid": "Q66110659"
      }
    },
    {
      "type": "Feature",
      "geometry": {
        "type": "Point",
        "coordinates": [
          53.324223679,
          55.305892527
        ]
      },
      "properties": {
        "label": "Q109703755",
        "type": "Industrial building",
        "entity": "http://www.wikidata.org/entity/Q109703755",
        "country_qid": "Q34266",
        "Wikidata Qid": "Q109703755"
      }
    },
    {
      "type": "Feature",
      "geometry": {
        "type": "Point",
        "coordinates": [
          23.737891,
          61.503139
        ]
      },
      "properties": {
        "label": "Suomen Trikoo",
        "type": "Industrial building",
        "entity": "http://www.wikidata.org/entity/Q11894942",
        "country_qid": "Q34266",
        "Wikidata Qid": "Q11894942"
      }
    },
    {
      "type": "Feature",
      "geometry": {
        "type": "Point",
        "coordinates": [
          23.733317,
          61.503316
        ]
      },
      "properties": {
        "label": "Elianderin tulitikkutehdas",
        "type": "Industrial building",
        "entity": "http://www.wikidata.org/entity/Q84751734",
        "country_qid": "Q34266",
        "Wikidata Qid": "Q84751734"
      }
    },
    {
      "type": "Feature",
      "geometry": {
        "type": "Point",
        "coordinates": [
          23.755034,
          61.498094
        ]
      },
      "properties": {
        "label": "Q98205522",
        "type": "Industrial building",
        "entity": "http://www.wikidata.org/entity/Q98205522",
        "country_qid": "Q34266",
        "Wikidata Qid": "Q98205522"
      }
    },
    {
      "type": "Feature",
      "geometry": {
        "type": "Point",
        "coordinates": [
          33.333056,
          47.886389
        ]
      },
      "properties": {
        "label": "Q16635917",
        "type": "Industrial building",
        "entity": "http://www.wikidata.org/entity/Q16635917",
        "country_qid": "Q34266",
        "Wikidata Qid": "Q16635917"
      }
    },
    {
      "type": "Feature",
      "geometry": {
        "type": "Point",
        "coordinates": [
          39.743,
          47.2203
        ]
      },
      "properties": {
        "label": "Paramonov’s Mill",
        "type": "Industrial building",
        "entity": "http://www.wikidata.org/entity/Q28218000",
        "country_qid": "Q34266",
        "Wikidata Qid": "Q28218000"
      }
    },
    {
      "type": "Feature",
      "geometry": {
        "type": "Point",
        "coordinates": [
          56.52167,
          57.119204
        ]
      },
      "properties": {
        "label": "Q106629934",
        "type": "Industrial building",
        "entity": "http://www.wikidata.org/entity/Q106629934",
        "country_qid": "Q34266",
        "Wikidata Qid": "Q106629934"
      }
    },
    {
      "type": "Feature",
      "geometry": {
        "type": "Point",
        "coordinates": [
          54.168728,
          59.131869
        ]
      },
      "properties": {
        "label": "Q108940317",
        "type": "Industrial building",
        "entity": "http://www.wikidata.org/entity/Q108940317",
        "country_qid": "Q34266",
        "Wikidata Qid": "Q108940317"
      }
    },
    {
      "type": "Feature",
      "geometry": {
        "type": "Point",
        "coordinates": [
          23.754416666,
          61.504588888
        ]
      },
      "properties": {
        "label": "Q99569247",
        "type": "Industrial building",
        "entity": "http://www.wikidata.org/entity/Q99569247",
        "country_qid": "Q34266",
        "Wikidata Qid": "Q99569247"
      }
    },
    {
      "type": "Feature",
      "geometry": {
        "type": "Point",
        "coordinates": [
          23.74331,
          61.502051
        ]
      },
      "properties": {
        "label": "Mustanlahden Mietojuomatehdas",
        "type": "Industrial building",
        "entity": "http://www.wikidata.org/entity/Q85403211",
        "country_qid": "Q34266",
        "Wikidata Qid": "Q85403211"
      }
    },
    {
      "type": "Feature",
      "geometry": {
        "type": "Point",
        "coordinates": [
          23.746844,
          61.506487
        ]
      },
      "properties": {
        "label": "Q98382055",
        "type": "Industrial building",
        "entity": "http://www.wikidata.org/entity/Q98382055",
        "country_qid": "Q34266",
        "Wikidata Qid": "Q98382055"
      }
    },
    {
      "type": "Feature",
      "geometry": {
        "type": "Point",
        "coordinates": [
          23.7508368,
          61.4930313
        ]
      },
      "properties": {
        "label": "Pyynikki Oy",
        "type": "Industrial building",
        "entity": "http://www.wikidata.org/entity/Q5391577",
        "country_qid": "Q34266",
        "Wikidata Qid": "Q5391577"
      }
    },
    {
      "type": "Feature",
      "geometry": {
        "type": "Point",
        "coordinates": [
          44.830021,
          41.690745
        ]
      },
      "properties": {
        "label": "Q4055952",
        "type": "Industrial building",
        "entity": "http://www.wikidata.org/entity/Q4055952",
        "country_qid": "Q34266",
        "Wikidata Qid": "Q4055952"
      }
    },
    {
      "type": "Feature",
      "geometry": {
        "type": "Point",
        "coordinates": [
          23.763955,
          61.495837
        ]
      },
      "properties": {
        "label": "H. Liljeroos",
        "type": "Industrial building",
        "entity": "http://www.wikidata.org/entity/Q18688771",
        "country_qid": "Q34266",
        "Wikidata Qid": "Q18688771"
      }
    },
    {
      "type": "Feature",
      "geometry": {
        "type": "Point",
        "coordinates": [
          23.747372,
          61.503871
        ]
      },
      "properties": {
        "label": "Mustalahti Brewery",
        "type": "Industrial building",
        "entity": "http://www.wikidata.org/entity/Q76385918",
        "country_qid": "Q34266",
        "Wikidata Qid": "Q76385918"
      }
    },
    {
      "type": "Feature",
      "geometry": {
        "type": "Point",
        "coordinates": [
          23.775884786,
          61.507800001
        ]
      },
      "properties": {
        "label": "Q76385939",
        "type": "Industrial building",
        "entity": "http://www.wikidata.org/entity/Q76385939",
        "country_qid": "Q34266",
        "Wikidata Qid": "Q76385939"
      }
    },
    {
      "type": "Feature",
      "geometry": {
        "type": "Point",
        "coordinates": [
          23.762702,
          61.496814
        ]
      },
      "properties": {
        "label": "Q76385933",
        "type": "Industrial building",
        "entity": "http://www.wikidata.org/entity/Q76385933",
        "country_qid": "Q34266",
        "Wikidata Qid": "Q76385933"
      }
    },
    {
      "type": "Feature",
      "geometry": {
        "type": "Point",
        "coordinates": [
          23.739743944,
          61.505241388
        ]
      },
      "properties": {
        "label": "Q78759152",
        "type": "Industrial building",
        "entity": "http://www.wikidata.org/entity/Q78759152",
        "country_qid": "Q34266",
        "Wikidata Qid": "Q78759152"
      }
    },
    {
      "type": "Feature",
      "geometry": {
        "type": "Point",
        "coordinates": [
          23.748698,
          61.493803
        ]
      },
      "properties": {
        "label": "Q76386029",
        "type": "Industrial building",
        "entity": "http://www.wikidata.org/entity/Q76386029",
        "country_qid": "Q34266",
        "Wikidata Qid": "Q76386029"
      }
    },
    {
      "type": "Feature",
      "geometry": {
        "type": "Point",
        "coordinates": [
          23.778673,
          61.50081
        ]
      },
      "properties": {
        "label": "Q11896277",
        "type": "Industrial building",
        "entity": "http://www.wikidata.org/entity/Q11896277",
        "country_qid": "Q34266",
        "Wikidata Qid": "Q11896277"
      }
    },
    {
      "type": "Feature",
      "geometry": {
        "type": "Point",
        "coordinates": [
          23.740483,
          61.505164
        ]
      },
      "properties": {
        "label": "Q76385975",
        "type": "Industrial building",
        "entity": "http://www.wikidata.org/entity/Q76385975",
        "country_qid": "Q34266",
        "Wikidata Qid": "Q76385975"
      }
    },
    {
      "type": "Feature",
      "geometry": {
        "type": "Point",
        "coordinates": [
          28.751392,
          60.715369
        ]
      },
      "properties": {
        "label": "Vyborg old railway station",
        "type": "Industrial building",
        "entity": "http://www.wikidata.org/entity/Q21270923",
        "country_qid": "Q34266",
        "Wikidata Qid": "Q21270923"
      }
    },
    {
      "type": "Feature",
      "geometry": {
        "type": "Point",
        "coordinates": [
          23.758972326,
          61.499255022
        ]
      },
      "properties": {
        "label": "Pukutehdas Oy",
        "type": "Industrial building",
        "entity": "http://www.wikidata.org/entity/Q79083832",
        "country_qid": "Q34266",
        "Wikidata Qid": "Q79083832"
      }
    },
    {
      "type": "Feature",
      "geometry": {
        "type": "Point",
        "coordinates": [
          59.922695,
          60.145219
        ]
      },
      "properties": {
        "label": "Q128031743",
        "type": "Industrial building",
        "entity": "http://www.wikidata.org/entity/Q128031743",
        "country_qid": "Q34266",
        "Wikidata Qid": "Q128031743"
      }
    },
    {
      "type": "Feature",
      "geometry": {
        "type": "Point",
        "coordinates": [
          23.724308055,
          61.493263055
        ]
      },
      "properties": {
        "label": "N. Bauerin Sukka- ja Trikootehdas",
        "type": "Industrial building",
        "entity": "http://www.wikidata.org/entity/Q86511368",
        "country_qid": "Q34266",
        "Wikidata Qid": "Q86511368"
      }
    },
    {
      "type": "Feature",
      "geometry": {
        "type": "Point",
        "coordinates": [
          23.80132479,
          61.514428206
        ]
      },
      "properties": {
        "label": "Q76386022",
        "type": "Industrial building",
        "entity": "http://www.wikidata.org/entity/Q76386022",
        "country_qid": "Q34266",
        "Wikidata Qid": "Q76386022"
      }
    },
    {
      "type": "Feature",
      "geometry": {
        "type": "Point",
        "coordinates": [
          23.733143884,
          61.502729975
        ]
      },
      "properties": {
        "label": "Q76385964",
        "type": "Industrial building",
        "entity": "http://www.wikidata.org/entity/Q76385964",
        "country_qid": "Q34266",
        "Wikidata Qid": "Q76385964"
      }
    },
    {
      "type": "Feature",
      "geometry": {
        "type": "Point",
        "coordinates": [
          23.803077454,
          61.49920405
        ]
      },
      "properties": {
        "label": "Q76385982",
        "type": "Industrial building",
        "entity": "http://www.wikidata.org/entity/Q76385982",
        "country_qid": "Q34266",
        "Wikidata Qid": "Q76385982"
      }
    },
    {
      "type": "Feature",
      "geometry": {
        "type": "Point",
        "coordinates": [
          23.752293,
          61.491755
        ]
      },
      "properties": {
        "label": "Klingendahl Oy",
        "type": "Industrial building",
        "entity": "http://www.wikidata.org/entity/Q76385999",
        "country_qid": "Q34266",
        "Wikidata Qid": "Q76385999"
      }
    },
    {
      "type": "Feature",
      "geometry": {
        "type": "Point",
        "coordinates": [
          23.777212916,
          61.50283177
        ]
      },
      "properties": {
        "label": "Q78879019",
        "type": "Industrial building",
        "entity": "http://www.wikidata.org/entity/Q78879019",
        "country_qid": "Q34266",
        "Wikidata Qid": "Q78879019"
      }
    },
    {
      "type": "Feature",
      "geometry": {
        "type": "Point",
        "coordinates": [
          23.769907039,
          61.491108067
        ]
      },
      "properties": {
        "label": "Q83366409",
        "type": "Industrial building",
        "entity": "http://www.wikidata.org/entity/Q83366409",
        "country_qid": "Q34266",
        "Wikidata Qid": "Q83366409"
      }
    },
    {
      "type": "Feature",
      "geometry": {
        "type": "Point",
        "coordinates": [
          59.916040573,
          58.065888807
        ]
      },
      "properties": {
        "label": "Q86678815",
        "type": "Industrial building",
        "entity": "http://www.wikidata.org/entity/Q86678815",
        "country_qid": "Q34266",
        "Wikidata Qid": "Q86678815"
      }
    },
    {
      "type": "Feature",
      "geometry": {
        "type": "Point",
        "coordinates": [
          60.605281,
          56.837211
        ]
      },
      "properties": {
        "label": "Yekaterinburg Mint",
        "type": "Industrial building",
        "entity": "http://www.wikidata.org/entity/Q4174316",
        "country_qid": "Q34266",
        "Wikidata Qid": "Q4174316"
      }
    },
    {
      "type": "Feature",
      "geometry": {
        "type": "Point",
        "coordinates": [
          28.754166666,
          60.714722222
        ]
      },
      "properties": {
        "label": "Vyborg first railway station",
        "type": "Industrial building",
        "entity": "http://www.wikidata.org/entity/Q110895642",
        "country_qid": "Q34266",
        "Wikidata Qid": "Q110895642"
      }
    },
    {
      "type": "Feature",
      "geometry": {
        "type": "Point",
        "coordinates": [
          23.819597,
          61.492081
        ]
      },
      "properties": {
        "label": "Q76386021",
        "type": "Industrial building",
        "entity": "http://www.wikidata.org/entity/Q76386021",
        "country_qid": "Q34266",
        "Wikidata Qid": "Q76386021"
      }
    },
    {
      "type": "Feature",
      "geometry": {
        "type": "Point",
        "coordinates": [
          57.391014,
          57.147943
        ]
      },
      "properties": {
        "label": "Suksun Plant",
        "type": "Industrial building",
        "entity": "http://www.wikidata.org/entity/Q85866725",
        "country_qid": "Q34266",
        "Wikidata Qid": "Q85866725"
      }
    },
    {
      "type": "Feature",
      "geometry": {
        "type": "Point",
        "coordinates": [
          23.730875,
          61.501438888
        ]
      },
      "properties": {
        "label": "Santalahden tiilitehdas",
        "type": "Industrial building",
        "entity": "http://www.wikidata.org/entity/Q84485558",
        "country_qid": "Q34266",
        "Wikidata Qid": "Q84485558"
      }
    },
    {
      "type": "Feature",
      "geometry": {
        "type": "Point",
        "coordinates": [
          56.324504,
          57.4299
        ]
      },
      "properties": {
        "label": "Q97007177",
        "type": "Industrial building",
        "entity": "http://www.wikidata.org/entity/Q97007177",
        "country_qid": "Q34266",
        "Wikidata Qid": "Q97007177"
      }
    },
    {
      "type": "Feature",
      "geometry": {
        "type": "Point",
        "coordinates": [
          23.771326,
          61.497547
        ]
      },
      "properties": {
        "label": "Q76386019",
        "type": "Industrial building",
        "entity": "http://www.wikidata.org/entity/Q76386019",
        "country_qid": "Q34266",
        "Wikidata Qid": "Q76386019"
      }
    },
    {
      "type": "Feature",
      "geometry": {
        "type": "Point",
        "coordinates": [
          56.45769839,
          53.898359465
        ]
      },
      "properties": {
        "label": "Q112040934",
        "type": "Industrial building",
        "entity": "http://www.wikidata.org/entity/Q112040934",
        "country_qid": "Q34266",
        "Wikidata Qid": "Q112040934"
      }
    },
    {
      "type": "Feature",
      "geometry": {
        "type": "Point",
        "coordinates": [
          23.781366,
          61.50211032
        ]
      },
      "properties": {
        "label": "Q85397904",
        "type": "Industrial building",
        "entity": "http://www.wikidata.org/entity/Q85397904",
        "country_qid": "Q34266",
        "Wikidata Qid": "Q85397904"
      }
    },
    {
      "type": "Feature",
      "geometry": {
        "type": "Point",
        "coordinates": [
          23.734105,
          61.502436
        ]
      },
      "properties": {
        "label": "Q11896259",
        "type": "Industrial building",
        "entity": "http://www.wikidata.org/entity/Q11896259",
        "country_qid": "Q34266",
        "Wikidata Qid": "Q11896259"
      }
    },
    {
      "type": "Feature",
      "geometry": {
        "type": "Point",
        "coordinates": [
          57.718917,
          56.469615
        ]
      },
      "properties": {
        "label": "Sarana iron mills",
        "type": "Industrial building",
        "entity": "http://www.wikidata.org/entity/Q102105503",
        "country_qid": "Q34266",
        "Wikidata Qid": "Q102105503"
      }
    },
    {
      "type": "Feature",
      "geometry": {
        "type": "Point",
        "coordinates": [
          23.707894,
          61.478422
        ]
      },
      "properties": {
        "label": "Pyhäjärven saha Oy",
        "type": "Industrial building",
        "entity": "http://www.wikidata.org/entity/Q18682480",
        "country_qid": "Q34266",
        "Wikidata Qid": "Q18682480"
      }
    },
    {
      "type": "Feature",
      "geometry": {
        "type": "Point",
        "coordinates": [
          23.762826355,
          61.495756016
        ]
      },
      "properties": {
        "label": "Q97906469",
        "type": "Industrial building",
        "entity": "http://www.wikidata.org/entity/Q97906469",
        "country_qid": "Q34266",
        "Wikidata Qid": "Q97906469"
      }
    },
    {
      "type": "Feature",
      "geometry": {
        "type": "Point",
        "coordinates": [
          23.756273923,
          61.499040583
        ]
      },
      "properties": {
        "label": "Q79084469",
        "type": "Industrial building",
        "entity": "http://www.wikidata.org/entity/Q79084469",
        "country_qid": "Q34266",
        "Wikidata Qid": "Q79084469"
      }
    },
    {
      "type": "Feature",
      "geometry": {
        "type": "Point",
        "coordinates": [
          52.117241101,
          55.826285133
        ]
      },
      "properties": {
        "label": "Q109679766",
        "type": "Industrial building",
        "entity": "http://www.wikidata.org/entity/Q109679766",
        "country_qid": "Q34266",
        "Wikidata Qid": "Q109679766"
      }
    },
    {
      "type": "Feature",
      "geometry": {
        "type": "Point",
        "coordinates": [
          23.78264,
          61.503265
        ]
      },
      "properties": {
        "label": "Ferraria",
        "type": "Industrial building",
        "entity": "http://www.wikidata.org/entity/Q11859514",
        "country_qid": "Q34266",
        "Wikidata Qid": "Q11859514"
      }
    },
    {
      "type": "Feature",
      "geometry": {
        "type": "Point",
        "coordinates": [
          23.769875,
          61.507748
        ]
      },
      "properties": {
        "label": "Q76385976",
        "type": "Industrial building",
        "entity": "http://www.wikidata.org/entity/Q76385976",
        "country_qid": "Q34266",
        "Wikidata Qid": "Q76385976"
      }
    },
    {
      "type": "Feature",
      "geometry": {
        "type": "Point",
        "coordinates": [
          23.748360568,
          61.506463296
        ]
      },
      "properties": {
        "label": "Särkänsaari Steam Saw",
        "type": "Industrial building",
        "entity": "http://www.wikidata.org/entity/Q76386031",
        "country_qid": "Q34266",
        "Wikidata Qid": "Q76386031"
      }
    },
    {
      "type": "Feature",
      "geometry": {
        "type": "Point",
        "coordinates": [
          49.1215682,
          55.7721196
        ]
      },
      "properties": {
        "label": "Petzold Brewery",
        "type": "Industrial building",
        "entity": "http://www.wikidata.org/entity/Q104632644",
        "country_qid": "Q34266",
        "Wikidata Qid": "Q104632644"
      }
    },
    {
      "type": "Feature",
      "geometry": {
        "type": "Point",
        "coordinates": [
          21.013327777,
          52.225744444
        ]
      },
      "properties": {
        "label": "Union Factory Building",
        "type": "Industrial building",
        "entity": "http://www.wikidata.org/entity/Q66649545",
        "country_qid": "Q34266",
        "Wikidata Qid": "Q66649545"
      }
    },
    {
      "type": "Feature",
      "geometry": {
        "type": "Point",
        "coordinates": [
          23.759231,
          61.492159
        ]
      },
      "properties": {
        "label": "Q98645784",
        "type": "Industrial building",
        "entity": "http://www.wikidata.org/entity/Q98645784",
        "country_qid": "Q34266",
        "Wikidata Qid": "Q98645784"
      }
    },
    {
      "type": "Feature",
      "geometry": {
        "type": "Point",
        "coordinates": [
          23.755403,
          61.496453
        ]
      },
      "properties": {
        "label": "Q11856368",
        "type": "Industrial building",
        "entity": "http://www.wikidata.org/entity/Q11856368",
        "country_qid": "Q34266",
        "Wikidata Qid": "Q11856368"
      }
    },
    {
      "type": "Feature",
      "geometry": {
        "type": "Point",
        "coordinates": [
          58.64528,
          57.86694
        ]
      },
      "properties": {
        "label": "Q28667084",
        "type": "Industrial building",
        "entity": "http://www.wikidata.org/entity/Q28667084",
        "country_qid": "Q34266",
        "Wikidata Qid": "Q28667084"
      }
    },
    {
      "type": "Feature",
      "geometry": {
        "type": "Point",
        "coordinates": [
          23.763736111,
          61.496319444
        ]
      },
      "properties": {
        "label": "Q87185022",
        "type": "Industrial building",
        "entity": "http://www.wikidata.org/entity/Q87185022",
        "country_qid": "Q34266",
        "Wikidata Qid": "Q87185022"
      }
    },
    {
      "type": "Feature",
      "geometry": {
        "type": "Point",
        "coordinates": [
          23.764413,
          61.484506
        ]
      },
      "properties": {
        "label": "Lokomo",
        "type": "Industrial building",
        "entity": "http://www.wikidata.org/entity/Q2066781",
        "country_qid": "Q34266",
        "Wikidata Qid": "Q2066781"
      }
    },
    {
      "type": "Feature",
      "geometry": {
        "type": "Point",
        "coordinates": [
          23.755032617,
          61.498034329
        ]
      },
      "properties": {
        "label": "Kenkätehdas Valio",
        "type": "Industrial building",
        "entity": "http://www.wikidata.org/entity/Q84404060",
        "country_qid": "Q34266",
        "Wikidata Qid": "Q84404060"
      }
    },
    {
      "type": "Feature",
      "geometry": {
        "type": "Point",
        "coordinates": [
          23.771846,
          61.489211
        ]
      },
      "properties": {
        "label": "Q76385974",
        "type": "Industrial building",
        "entity": "http://www.wikidata.org/entity/Q76385974",
        "country_qid": "Q34266",
        "Wikidata Qid": "Q76385974"
      }
    },
    {
      "type": "Feature",
      "geometry": {
        "type": "Point",
        "coordinates": [
          23.735218,
          61.503223
        ]
      },
      "properties": {
        "label": "Q83859088",
        "type": "Industrial building",
        "entity": "http://www.wikidata.org/entity/Q83859088",
        "country_qid": "Q34266",
        "Wikidata Qid": "Q83859088"
      }
    },
    {
      "type": "Feature",
      "geometry": {
        "type": "Point",
        "coordinates": [
          57.534401,
          53.525538
        ]
      },
      "properties": {
        "label": "Avzyano-Petrovsky Works",
        "type": "Industrial building",
        "entity": "http://www.wikidata.org/entity/Q24934018",
        "country_qid": "Q34266",
        "Wikidata Qid": "Q24934018"
      }
    },
    {
      "type": "Feature",
      "geometry": {
        "type": "Point",
        "coordinates": [
          23.189166666,
          61.665833333
        ]
      },
      "properties": {
        "label": "Q97311748",
        "type": "Industrial building",
        "entity": "http://www.wikidata.org/entity/Q97311748",
        "country_qid": "Q34266",
        "Wikidata Qid": "Q97311748"
      }
    },
    {
      "type": "Feature",
      "geometry": {
        "type": "Point",
        "coordinates": [
          23.779858,
          61.503927
        ]
      },
      "properties": {
        "label": "Sommers, af Hällström & Waldens",
        "type": "Industrial building",
        "entity": "http://www.wikidata.org/entity/Q11894070",
        "country_qid": "Q34266",
        "Wikidata Qid": "Q11894070"
      }
    },
    {
      "type": "Feature",
      "geometry": {
        "type": "Point",
        "coordinates": [
          23.662853389,
          61.508631166
        ]
      },
      "properties": {
        "label": "Q28721098",
        "type": "Industrial building",
        "entity": "http://www.wikidata.org/entity/Q28721098",
        "country_qid": "Q34266",
        "Wikidata Qid": "Q28721098"
      }
    },
    {
      "type": "Feature",
      "geometry": {
        "type": "Point",
        "coordinates": [
          23.757041057,
          61.496284368
        ]
      },
      "properties": {
        "label": "Q56400915",
        "type": "Industrial building",
        "entity": "http://www.wikidata.org/entity/Q56400915",
        "country_qid": "Q34266",
        "Wikidata Qid": "Q56400915"
      }
    },
    {
      "type": "Feature",
      "geometry": {
        "type": "Point",
        "coordinates": [
          28.023771,
          50.709635
        ]
      },
      "properties": {
        "label": "Q113638953",
        "type": "Industrial building",
        "entity": "http://www.wikidata.org/entity/Q113638953",
        "country_qid": "Q34266",
        "Wikidata Qid": "Q113638953"
      }
    },
    {
      "type": "Feature",
      "geometry": {
        "type": "Point",
        "coordinates": [
          23.762825665,
          61.499197276
        ]
      },
      "properties": {
        "label": "Q83365583",
        "type": "Industrial building",
        "entity": "http://www.wikidata.org/entity/Q83365583",
        "country_qid": "Q34266",
        "Wikidata Qid": "Q83365583"
      }
    },
    {
      "type": "Feature",
      "geometry": {
        "type": "Point",
        "coordinates": [
          23.953007388,
          61.504569971
        ]
      },
      "properties": {
        "label": "Q83779881",
        "type": "Industrial building",
        "entity": "http://www.wikidata.org/entity/Q83779881",
        "country_qid": "Q34266",
        "Wikidata Qid": "Q83779881"
      }
    },
    {
      "type": "Feature",
      "geometry": {
        "type": "Point",
        "coordinates": [
          23.783706,
          61.499898
        ]
      },
      "properties": {
        "label": "Karisto ja kumppanit Oy",
        "type": "Industrial building",
        "entity": "http://www.wikidata.org/entity/Q84310858",
        "country_qid": "Q34266",
        "Wikidata Qid": "Q84310858"
      }
    },
    {
      "type": "Feature",
      "geometry": {
        "type": "Point",
        "coordinates": [
          59.134409,
          55.28161
        ]
      },
      "properties": {
        "label": "Q86678111",
        "type": "Industrial building",
        "entity": "http://www.wikidata.org/entity/Q86678111",
        "country_qid": "Q34266",
        "Wikidata Qid": "Q86678111"
      }
    },
    {
      "type": "Feature",
      "geometry": {
        "type": "Point",
        "coordinates": [
          23.761376,
          61.496857
        ]
      },
      "properties": {
        "label": "Q97444502",
        "type": "Industrial building",
        "entity": "http://www.wikidata.org/entity/Q97444502",
        "country_qid": "Q34266",
        "Wikidata Qid": "Q97444502"
      }
    },
    {
      "type": "Feature",
      "geometry": {
        "type": "Point",
        "coordinates": [
          40.504,
          64.59
        ]
      },
      "properties": {
        "label": "Solombala Shipyard",
        "type": "Industrial building",
        "entity": "http://www.wikidata.org/entity/Q4428231",
        "country_qid": "Q34266",
        "Wikidata Qid": "Q4428231"
      }
    },
    {
      "type": "Feature",
      "geometry": {
        "type": "Point",
        "coordinates": [
          60.605,
          56.83732
        ]
      },
      "properties": {
        "label": "Q107970405",
        "type": "Industrial building",
        "entity": "http://www.wikidata.org/entity/Q107970405",
        "country_qid": "Q34266",
        "Wikidata Qid": "Q107970405"
      }
    },
    {
      "type": "Feature",
      "geometry": {
        "type": "Point",
        "coordinates": [
          23.779109,
          61.498845
        ]
      },
      "properties": {
        "label": "Attila Oy",
        "type": "Industrial building",
        "entity": "http://www.wikidata.org/entity/Q84301934",
        "country_qid": "Q34266",
        "Wikidata Qid": "Q84301934"
      }
    },
    {
      "type": "Feature",
      "geometry": {
        "type": "Point",
        "coordinates": [
          72.53972222,
          40.37194444
        ]
      },
      "properties": {
        "label": "Tua Muyun mine",
        "type": "Mine",
        "entity": "http://www.wikidata.org/entity/Q16708766",
        "country_qid": "Q34266",
        "Wikidata Qid": "Q16708766"
      }
    }
  ]
}