{
  "type": "FeatureCollection",
  "features": [
    {
      "type": "Feature",
      "geometry": {
        "type": "Point",
        "coordinates": [
          36.16667,
          54.53333
        ]
      },
      "properties": {
        "label": "Q48941890",
        "type": "power plant",
        "entity": "http://www.wikidata.org/entity/Q48941890",
        "country_qid": "Q15180",
        "Wikidata Qid": "Q48941890"
      }
    },
    {
      "type": "Feature",
      "geometry": {
        "type": "Point",
        "coordinates": [
          60.501507,
          56.847695
        ]
      },
      "properties": {
        "label": "Sverdlovsk power plant",
        "type": "power plant",
        "entity": "http://www.wikidata.org/entity/Q55594532",
        "country_qid": "Q15180",
        "Wikidata Qid": "Q55594532"
      }
    },
    {
      "type": "Feature",
      "geometry": {
        "type": "Point",
        "coordinates": [
          44.623457,
          40.28181
        ]
      },
      "properties": {
        "label": "Sirius",
        "type": "Industrial building",
        "entity": "http://www.wikidata.org/entity/Q132349043",
        "country_qid": "Q15180",
        "Wikidata Qid": "Q132349043"
      }
    },
    {
      "type": "Feature",
      "geometry": {
        "type": "Point",
        "coordinates": [
          69.249178,
          41.355113
        ]
      },
      "properties": {
        "label": "Mikond",
        "type": "Industrial building",
        "entity": "http://www.wikidata.org/entity/Q132190688",
        "country_qid": "Q15180",
        "Wikidata Qid": "Q132190688"
      }
    },
    {
      "type": "Feature",
      "geometry": {
        "type": "Point",
        "coordinates": [
          38.935493,
          47.215213
        ]
      },
      "properties": {
        "label": "Vibropribor",
        "type": "Industrial building",
        "entity": "http://www.wikidata.org/entity/Q4110499",
        "country_qid": "Q15180",
        "Wikidata Qid": "Q4110499"
      }
    },
    {
      "type": "Feature",
      "geometry": {
        "type": "Point",
        "coordinates": [
          37.490515,
          55.804394
        ]
      },
      "properties": {
        "label": "First Moscow radio component plant",
        "type": "Industrial building",
        "entity": "http://www.wikidata.org/entity/Q4349731",
        "country_qid": "Q15180",
        "Wikidata Qid": "Q4349731"
      }
    },
    {
      "type": "Feature",
      "geometry": {
        "type": "Point",
        "coordinates": [
          47.857382,
          56.637601
        ]
      },
      "properties": {
        "label": "Izotop",
        "type": "Industrial building",
        "entity": "http://www.wikidata.org/entity/Q131358642",
        "country_qid": "Q15180",
        "Wikidata Qid": "Q131358642"
      }
    },
    {
      "type": "Feature",
      "geometry": {
        "type": "Point",
        "coordinates": [
          37.57612,
          55.42805
        ]
      },
      "properties": {
        "label": "Podolsk chemical metallurgy plant",
        "type": "Industrial building",
        "entity": "http://www.wikidata.org/entity/Q131597728",
        "country_qid": "Q15180",
        "Wikidata Qid": "Q131597728"
      }
    },
    {
      "type": "Feature",
      "geometry": {
        "type": "Point",
        "coordinates": [
          32.298254,
          60.089514
        ]
      },
      "properties": {
        "label": "Amfi",
        "type": "Industrial building",
        "entity": "http://www.wikidata.org/entity/Q130739063",
        "country_qid": "Q15180",
        "Wikidata Qid": "Q130739063"
      }
    },
    {
      "type": "Feature",
      "geometry": {
        "type": "Point",
        "coordinates": [
          37.686308,
          55.708365
        ]
      },
      "properties": {
        "label": "Topaz",
        "type": "Industrial building",
        "entity": "http://www.wikidata.org/entity/Q134347102",
        "country_qid": "Q15180",
        "Wikidata Qid": "Q134347102"
      }
    },
    {
      "type": "Feature",
      "geometry": {
        "type": "Point",
        "coordinates": [
          78.821,
          44.851
        ]
      },
      "properties": {
        "label": "Q12565163",
        "type": "Industrial building",
        "entity": "http://www.wikidata.org/entity/Q12565163",
        "country_qid": "Q15180",
        "Wikidata Qid": "Q12565163"
      }
    },
    {
      "type": "Feature",
      "geometry": {
        "type": "Point",
        "coordinates": [
          76.954722222,
          52.325
        ]
      },
      "properties": {
        "label": "PTZ tractors",
        "type": "Industrial building",
        "entity": "http://www.wikidata.org/entity/Q4341878",
        "country_qid": "Q15180",
        "Wikidata Qid": "Q4341878"
      }
    },
    {
      "type": "Feature",
      "geometry": {
        "type": "Point",
        "coordinates": [
          28.864818,
          47.057349
        ]
      },
      "properties": {
        "label": "Mezon",
        "type": "Industrial building",
        "entity": "http://www.wikidata.org/entity/Q132263145",
        "country_qid": "Q15180",
        "Wikidata Qid": "Q132263145"
      }
    },
    {
      "type": "Feature",
      "geometry": {
        "type": "Point",
        "coordinates": [
          55.935753,
          54.719153
        ]
      },
      "properties": {
        "label": "BETO",
        "type": "Industrial building",
        "entity": "http://www.wikidata.org/entity/Q112960393",
        "country_qid": "Q15180",
        "Wikidata Qid": "Q112960393"
      }
    },
    {
      "type": "Feature",
      "geometry": {
        "type": "Point",
        "coordinates": [
          135.10696,
          48.4093
        ]
      },
      "properties": {
        "label": "Khabarovsk abandoned MZK",
        "type": "Industrial building",
        "entity": "http://www.wikidata.org/entity/Q117323059",
        "country_qid": "Q15180",
        "Wikidata Qid": "Q117323059"
      }
    },
    {
      "type": "Feature",
      "geometry": {
        "type": "Point",
        "coordinates": [
          43.664992,
          43.462073
        ]
      },
      "properties": {
        "label": "Elkor Nalchik",
        "type": "Industrial building",
        "entity": "http://www.wikidata.org/entity/Q131826601",
        "country_qid": "Q15180",
        "Wikidata Qid": "Q131826601"
      }
    },
    {
      "type": "Feature",
      "geometry": {
        "type": "Point",
        "coordinates": [
          24.150628641,
          56.965668511
        ]
      },
      "properties": {
        "label": "Riga electro-mechanical plant",
        "type": "Industrial building",
        "entity": "http://www.wikidata.org/entity/Q105037975",
        "country_qid": "Q15180",
        "Wikidata Qid": "Q105037975"
      }
    },
    {
      "type": "Feature",
      "geometry": {
        "type": "Point",
        "coordinates": [
          39.763713,
          54.611849
        ]
      },
      "properties": {
        "label": "Ryazan Electronic Devices Plant",
        "type": "Industrial building",
        "entity": "http://www.wikidata.org/entity/Q132130588",
        "country_qid": "Q15180",
        "Wikidata Qid": "Q132130588"
      }
    },
    {
      "type": "Feature",
      "geometry": {
        "type": "Point",
        "coordinates": [
          55.814752,
          58.121012
        ]
      },
      "properties": {
        "label": "Q28527718",
        "type": "Industrial building",
        "entity": "http://www.wikidata.org/entity/Q28527718",
        "country_qid": "Q15180",
        "Wikidata Qid": "Q28527718"
      }
    },
    {
      "type": "Feature",
      "geometry": {
        "type": "Point",
        "coordinates": [
          37.7794,
          47.962299
        ]
      },
      "properties": {
        "label": "Q131622812",
        "type": "Industrial building",
        "entity": "http://www.wikidata.org/entity/Q131622812",
        "country_qid": "Q15180",
        "Wikidata Qid": "Q131622812"
      }
    },
    {
      "type": "Feature",
      "geometry": {
        "type": "Point",
        "coordinates": [
          84.963991,
          56.463672
        ]
      },
      "properties": {
        "label": "Scientific Research Institute for Semiconductors",
        "type": "Industrial building",
        "entity": "http://www.wikidata.org/entity/Q130501790",
        "country_qid": "Q15180",
        "Wikidata Qid": "Q130501790"
      }
    },
    {
      "type": "Feature",
      "geometry": {
        "type": "Point",
        "coordinates": [
          37.757936,
          55.803038
        ]
      },
      "properties": {
        "label": "Delta",
        "type": "Industrial building",
        "entity": "http://www.wikidata.org/entity/Q132325272",
        "country_qid": "Q15180",
        "Wikidata Qid": "Q132325272"
      }
    },
    {
      "type": "Feature",
      "geometry": {
        "type": "Point",
        "coordinates": [
          46.60008,
          54.85569
        ]
      },
      "properties": {
        "label": "Electropribor",
        "type": "Industrial building",
        "entity": "http://www.wikidata.org/entity/Q32361861",
        "country_qid": "Q15180",
        "Wikidata Qid": "Q32361861"
      }
    },
    {
      "type": "Feature",
      "geometry": {
        "type": "Point",
        "coordinates": [
          38.709095,
          56.393114
        ]
      },
      "properties": {
        "label": "Alexandrov semiconductor plant",
        "type": "Industrial building",
        "entity": "http://www.wikidata.org/entity/Q131605695",
        "country_qid": "Q15180",
        "Wikidata Qid": "Q131605695"
      }
    },
    {
      "type": "Feature",
      "geometry": {
        "type": "Point",
        "coordinates": [
          37.963444,
          55.663372
        ]
      },
      "properties": {
        "label": "Tomilino electronic plant",
        "type": "Industrial building",
        "entity": "http://www.wikidata.org/entity/Q130447680",
        "country_qid": "Q15180",
        "Wikidata Qid": "Q130447680"
      }
    },
    {
      "type": "Feature",
      "geometry": {
        "type": "Point",
        "coordinates": [
          24.204083333,
          56.985194444
        ]
      },
      "properties": {
        "label": "Alfa",
        "type": "Industrial building",
        "entity": "http://www.wikidata.org/entity/Q25394205",
        "country_qid": "Q15180",
        "Wikidata Qid": "Q25394205"
      }
    },
    {
      "type": "Feature",
      "geometry": {
        "type": "Point",
        "coordinates": [
          44.501653,
          40.156131
        ]
      },
      "properties": {
        "label": "Transistor Yerevan",
        "type": "Industrial building",
        "entity": "http://www.wikidata.org/entity/Q131564901",
        "country_qid": "Q15180",
        "Wikidata Qid": "Q131564901"
      }
    },
    {
      "type": "Feature",
      "geometry": {
        "type": "Point",
        "coordinates": [
          34.337847,
          53.59844
        ]
      },
      "properties": {
        "label": "Anod",
        "type": "Industrial building",
        "entity": "http://www.wikidata.org/entity/Q132129247",
        "country_qid": "Q15180",
        "Wikidata Qid": "Q132129247"
      }
    },
    {
      "type": "Feature",
      "geometry": {
        "type": "Point",
        "coordinates": [
          44.01361,
          43.758477
        ]
      },
      "properties": {
        "label": "Prokhladnensky semiconductor plant",
        "type": "Industrial building",
        "entity": "http://www.wikidata.org/entity/Q132348459",
        "country_qid": "Q15180",
        "Wikidata Qid": "Q132348459"
      }
    },
    {
      "type": "Feature",
      "geometry": {
        "type": "Point",
        "coordinates": [
          48.358159,
          54.352858
        ]
      },
      "properties": {
        "label": "NPP Iskra",
        "type": "Industrial building",
        "entity": "http://www.wikidata.org/entity/Q131926004",
        "country_qid": "Q15180",
        "Wikidata Qid": "Q131926004"
      }
    },
    {
      "type": "Feature",
      "geometry": {
        "type": "Point",
        "coordinates": [
          30.343273,
          59.964636
        ]
      },
      "properties": {
        "label": "Meson Capacitor Plant",
        "type": "Industrial building",
        "entity": "http://www.wikidata.org/entity/Q130729794",
        "country_qid": "Q15180",
        "Wikidata Qid": "Q130729794"
      }
    },
    {
      "type": "Feature",
      "geometry": {
        "type": "Point",
        "coordinates": [
          39.271211,
          51.692909
        ]
      },
      "properties": {
        "label": "VZEVP",
        "type": "Industrial building",
        "entity": "http://www.wikidata.org/entity/Q135012523",
        "country_qid": "Q15180",
        "Wikidata Qid": "Q135012523"
      }
    },
    {
      "type": "Feature",
      "geometry": {
        "type": "Point",
        "coordinates": [
          38.062749,
          55.966743
        ]
      },
      "properties": {
        "label": "FZMT",
        "type": "Industrial building",
        "entity": "http://www.wikidata.org/entity/Q131730113",
        "country_qid": "Q15180",
        "Wikidata Qid": "Q131730113"
      }
    },
    {
      "type": "Feature",
      "geometry": {
        "type": "Point",
        "coordinates": [
          69.4222,
          53.2881
        ]
      },
      "properties": {
        "label": "Kokshetau-1 station",
        "type": "Industrial building",
        "entity": "http://www.wikidata.org/entity/Q102047169",
        "country_qid": "Q15180",
        "Wikidata Qid": "Q102047169"
      }
    },
    {
      "type": "Feature",
      "geometry": {
        "type": "Point",
        "coordinates": [
          25.30414,
          54.716937
        ]
      },
      "properties": {
        "label": "Vilma",
        "type": "Industrial building",
        "entity": "http://www.wikidata.org/entity/Q20504518",
        "country_qid": "Q15180",
        "Wikidata Qid": "Q20504518"
      }
    },
    {
      "type": "Feature",
      "geometry": {
        "type": "Point",
        "coordinates": [
          37.738320349,
          55.668068685
        ]
      },
      "properties": {
        "label": "Lublino works",
        "type": "Industrial building",
        "entity": "http://www.wikidata.org/entity/Q122649585",
        "country_qid": "Q15180",
        "Wikidata Qid": "Q122649585"
      }
    },
    {
      "type": "Feature",
      "geometry": {
        "type": "Point",
        "coordinates": [
          73.013613888,
          50.052333333
        ]
      },
      "properties": {
        "label": "Qarağandı metallurgical plant",
        "type": "Industrial building",
        "entity": "http://www.wikidata.org/entity/Q4213686",
        "country_qid": "Q15180",
        "Wikidata Qid": "Q4213686"
      }
    },
    {
      "type": "Feature",
      "geometry": {
        "type": "Point",
        "coordinates": [
          31.288845,
          58.52262
        ]
      },
      "properties": {
        "label": "Planeta",
        "type": "Industrial building",
        "entity": "http://www.wikidata.org/entity/Q132177482",
        "country_qid": "Q15180",
        "Wikidata Qid": "Q132177482"
      }
    },
    {
      "type": "Feature",
      "geometry": {
        "type": "Point",
        "coordinates": [
          135.047608,
          48.553863
        ]
      },
      "properties": {
        "label": "Splav",
        "type": "Industrial building",
        "entity": "http://www.wikidata.org/entity/Q132356952",
        "country_qid": "Q15180",
        "Wikidata Qid": "Q132356952"
      }
    },
    {
      "type": "Feature",
      "geometry": {
        "type": "Point",
        "coordinates": [
          49.800069716,
          40.401529297
        ]
      },
      "properties": {
        "label": "Azon",
        "type": "Industrial building",
        "entity": "http://www.wikidata.org/entity/Q131708623",
        "country_qid": "Q15180",
        "Wikidata Qid": "Q131708623"
      }
    },
    {
      "type": "Feature",
      "geometry": {
        "type": "Point",
        "coordinates": [
          37.569552,
          55.850884
        ]
      },
      "properties": {
        "label": "Vladykinsky Mechanical Plant",
        "type": "Industrial building",
        "entity": "http://www.wikidata.org/entity/Q132532460",
        "country_qid": "Q15180",
        "Wikidata Qid": "Q132532460"
      }
    },
    {
      "type": "Feature",
      "geometry": {
        "type": "Point",
        "coordinates": [
          51.361111111,
          51.238611111
        ]
      },
      "properties": {
        "label": "Q16683019",
        "type": "Industrial building",
        "entity": "http://www.wikidata.org/entity/Q16683019",
        "country_qid": "Q15180",
        "Wikidata Qid": "Q16683019"
      }
    },
    {
      "type": "Feature",
      "geometry": {
        "type": "Point",
        "coordinates": [
          82.964218,
          55.0558661
        ]
      },
      "properties": {
        "label": "Novosibirsk Precision Engineering Plant",
        "type": "Industrial building",
        "entity": "http://www.wikidata.org/entity/Q65131573",
        "country_qid": "Q15180",
        "Wikidata Qid": "Q65131573"
      }
    },
    {
      "type": "Feature",
      "geometry": {
        "type": "Point",
        "coordinates": [
          36.047705,
          52.98098
        ]
      },
      "properties": {
        "label": "ORZEP",
        "type": "Industrial building",
        "entity": "http://www.wikidata.org/entity/Q115959128",
        "country_qid": "Q15180",
        "Wikidata Qid": "Q115959128"
      }
    },
    {
      "type": "Feature",
      "geometry": {
        "type": "Point",
        "coordinates": [
          39.754161,
          54.614125
        ]
      },
      "properties": {
        "label": "Ryazan computing and analytical machine plant",
        "type": "Industrial building",
        "entity": "http://www.wikidata.org/entity/Q48955703",
        "country_qid": "Q15180",
        "Wikidata Qid": "Q48955703"
      }
    },
    {
      "type": "Feature",
      "geometry": {
        "type": "Point",
        "coordinates": [
          37.739083,
          55.668712
        ]
      },
      "properties": {
        "label": "Lyublino Foundry and Mechanical Plant",
        "type": "Industrial building",
        "entity": "http://www.wikidata.org/entity/Q134739983",
        "country_qid": "Q15180",
        "Wikidata Qid": "Q134739983"
      }
    },
    {
      "type": "Feature",
      "geometry": {
        "type": "Point",
        "coordinates": [
          82.921416,
          55.062451
        ]
      },
      "properties": {
        "label": "Vostok",
        "type": "Industrial building",
        "entity": "http://www.wikidata.org/entity/Q131862602",
        "country_qid": "Q15180",
        "Wikidata Qid": "Q131862602"
      }
    },
    {
      "type": "Feature",
      "geometry": {
        "type": "Point",
        "coordinates": [
          38.712222222,
          50.603611111
        ]
      },
      "properties": {
        "label": "Deviz",
        "type": "Industrial building",
        "entity": "http://www.wikidata.org/entity/Q131702239",
        "country_qid": "Q15180",
        "Wikidata Qid": "Q131702239"
      }
    },
    {
      "type": "Feature",
      "geometry": {
        "type": "Point",
        "coordinates": [
          37.671052,
          55.772725
        ]
      },
      "properties": {
        "label": "Start Moscow",
        "type": "Industrial building",
        "entity": "http://www.wikidata.org/entity/Q131551521",
        "country_qid": "Q15180",
        "Wikidata Qid": "Q131551521"
      }
    },
    {
      "type": "Feature",
      "geometry": {
        "type": "Point",
        "coordinates": [
          25.267196,
          54.670206
        ]
      },
      "properties": {
        "label": "ELFA",
        "type": "Industrial building",
        "entity": "http://www.wikidata.org/entity/Q96030829",
        "country_qid": "Q15180",
        "Wikidata Qid": "Q96030829"
      }
    },
    {
      "type": "Feature",
      "geometry": {
        "type": "Point",
        "coordinates": [
          45.19409,
          54.191899
        ]
      },
      "properties": {
        "label": "NIITFA Saransk plant",
        "type": "Industrial building",
        "entity": "http://www.wikidata.org/entity/Q132533499",
        "country_qid": "Q15180",
        "Wikidata Qid": "Q132533499"
      }
    },
    {
      "type": "Feature",
      "geometry": {
        "type": "Point",
        "coordinates": [
          41.912832,
          45.040907
        ]
      },
      "properties": {
        "label": "Optron",
        "type": "Industrial building",
        "entity": "http://www.wikidata.org/entity/Q131382844",
        "country_qid": "Q15180",
        "Wikidata Qid": "Q131382844"
      }
    },
    {
      "type": "Feature",
      "geometry": {
        "type": "Point",
        "coordinates": [
          48.329165,
          54.29657
        ]
      },
      "properties": {
        "label": "Ulyanovsk Vacuum Tube Plant",
        "type": "Industrial building",
        "entity": "http://www.wikidata.org/entity/Q131922384",
        "country_qid": "Q15180",
        "Wikidata Qid": "Q131922384"
      }
    },
    {
      "type": "Feature",
      "geometry": {
        "type": "Point",
        "coordinates": [
          42.842265,
          54.073812
        ]
      },
      "properties": {
        "label": "Zubovo-Polyansky Radio Component Plant",
        "type": "Industrial building",
        "entity": "http://www.wikidata.org/entity/Q131934774",
        "country_qid": "Q15180",
        "Wikidata Qid": "Q131934774"
      }
    },
    {
      "type": "Feature",
      "geometry": {
        "type": "Point",
        "coordinates": [
          49.548205626,
          53.402014075
        ]
      },
      "properties": {
        "label": "Zhigulyovsk Radio Plant",
        "type": "Industrial building",
        "entity": "http://www.wikidata.org/entity/Q131740470",
        "country_qid": "Q15180",
        "Wikidata Qid": "Q131740470"
      }
    },
    {
      "type": "Feature",
      "geometry": {
        "type": "Point",
        "coordinates": [
          37.758195,
          47.963837
        ]
      },
      "properties": {
        "label": "Toy factory (Donetsk)",
        "type": "Industrial building",
        "entity": "http://www.wikidata.org/entity/Q131622521",
        "country_qid": "Q15180",
        "Wikidata Qid": "Q131622521"
      }
    },
    {
      "type": "Feature",
      "geometry": {
        "type": "Point",
        "coordinates": [
          33.0648565,
          68.9736247
        ]
      },
      "properties": {
        "label": "Murmansk Ship Repair Plant",
        "type": "Industrial building",
        "entity": "http://www.wikidata.org/entity/Q131176050",
        "country_qid": "Q15180",
        "Wikidata Qid": "Q131176050"
      }
    },
    {
      "type": "Feature",
      "geometry": {
        "type": "Point",
        "coordinates": [
          37.631366,
          55.703488
        ]
      },
      "properties": {
        "label": "Geliymash",
        "type": "Industrial building",
        "entity": "http://www.wikidata.org/entity/Q133934682",
        "country_qid": "Q15180",
        "Wikidata Qid": "Q133934682"
      }
    },
    {
      "type": "Feature",
      "geometry": {
        "type": "Point",
        "coordinates": [
          30.245377,
          59.954647
        ]
      },
      "properties": {
        "label": "Morion",
        "type": "Industrial building",
        "entity": "http://www.wikidata.org/entity/Q132742240",
        "country_qid": "Q15180",
        "Wikidata Qid": "Q132742240"
      }
    },
    {
      "type": "Feature",
      "geometry": {
        "type": "Point",
        "coordinates": [
          42.505684,
          43.939316
        ]
      },
      "properties": {
        "label": "Elia",
        "type": "Industrial building",
        "entity": "http://www.wikidata.org/entity/Q131898679",
        "country_qid": "Q15180",
        "Wikidata Qid": "Q131898679"
      }
    },
    {
      "type": "Feature",
      "geometry": {
        "type": "Point",
        "coordinates": [
          32.081259,
          54.77901
        ]
      },
      "properties": {
        "label": "Piramida",
        "type": "Industrial building",
        "entity": "http://www.wikidata.org/entity/Q132579986",
        "country_qid": "Q15180",
        "Wikidata Qid": "Q132579986"
      }
    },
    {
      "type": "Feature",
      "geometry": {
        "type": "Point",
        "coordinates": [
          31.234327,
          58.523028
        ]
      },
      "properties": {
        "label": "Start",
        "type": "Industrial building",
        "entity": "http://www.wikidata.org/entity/Q132208416",
        "country_qid": "Q15180",
        "Wikidata Qid": "Q132208416"
      }
    },
    {
      "type": "Feature",
      "geometry": {
        "type": "Point",
        "coordinates": [
          46.539559,
          56.334046
        ]
      },
      "properties": {
        "label": "Potential",
        "type": "Industrial building",
        "entity": "http://www.wikidata.org/entity/Q132156528",
        "country_qid": "Q15180",
        "Wikidata Qid": "Q132156528"
      }
    },
    {
      "type": "Feature",
      "geometry": {
        "type": "Point",
        "coordinates": [
          39.173888888,
          51.683611111
        ]
      },
      "properties": {
        "label": "Voronezh Radio Component Plant",
        "type": "Industrial building",
        "entity": "http://www.wikidata.org/entity/Q131859349",
        "country_qid": "Q15180",
        "Wikidata Qid": "Q131859349"
      }
    },
    {
      "type": "Feature",
      "geometry": {
        "type": "Point",
        "coordinates": [
          30.648,
          50.469
        ]
      },
      "properties": {
        "label": "Kievnauchfilm",
        "type": "Industrial building",
        "entity": "http://www.wikidata.org/entity/Q16852254",
        "country_qid": "Q15180",
        "Wikidata Qid": "Q16852254"
      }
    },
    {
      "type": "Feature",
      "geometry": {
        "type": "Point",
        "coordinates": [
          86.300853,
          54.432332
        ]
      },
      "properties": {
        "label": "Kuzbassradio",
        "type": "Industrial building",
        "entity": "http://www.wikidata.org/entity/Q132186887",
        "country_qid": "Q15180",
        "Wikidata Qid": "Q132186887"
      }
    },
    {
      "type": "Feature",
      "geometry": {
        "type": "Point",
        "coordinates": [
          45.977733,
          51.576235
        ]
      },
      "properties": {
        "label": "Tantal",
        "type": "Industrial building",
        "entity": "http://www.wikidata.org/entity/Q132227662",
        "country_qid": "Q15180",
        "Wikidata Qid": "Q132227662"
      }
    },
    {
      "type": "Feature",
      "geometry": {
        "type": "Point",
        "coordinates": [
          45.19842,
          54.191697
        ]
      },
      "properties": {
        "label": "Saransk Precision Instrument Plant",
        "type": "Industrial building",
        "entity": "http://www.wikidata.org/entity/Q132559670",
        "country_qid": "Q15180",
        "Wikidata Qid": "Q132559670"
      }
    },
    {
      "type": "Feature",
      "geometry": {
        "type": "Point",
        "coordinates": [
          39.201209,
          51.642972
        ]
      },
      "properties": {
        "label": "Elektropribor",
        "type": "Industrial building",
        "entity": "http://www.wikidata.org/entity/Q131860703",
        "country_qid": "Q15180",
        "Wikidata Qid": "Q131860703"
      }
    },
    {
      "type": "Feature",
      "geometry": {
        "type": "Point",
        "coordinates": [
          28.353883,
          57.350684
        ]
      },
      "properties": {
        "label": "Vector",
        "type": "Industrial building",
        "entity": "http://www.wikidata.org/entity/Q132157790",
        "country_qid": "Q15180",
        "Wikidata Qid": "Q132157790"
      }
    },
    {
      "type": "Feature",
      "geometry": {
        "type": "Point",
        "coordinates": [
          45.176384,
          54.196051
        ]
      },
      "properties": {
        "label": "Elektrovypryamitel",
        "type": "Industrial building",
        "entity": "http://www.wikidata.org/entity/Q131575082",
        "country_qid": "Q15180",
        "Wikidata Qid": "Q131575082"
      }
    },
    {
      "type": "Feature",
      "geometry": {
        "type": "Point",
        "coordinates": [
          30.361106,
          60.009137
        ]
      },
      "properties": {
        "label": "Rekond",
        "type": "Industrial building",
        "entity": "http://www.wikidata.org/entity/Q132773923",
        "country_qid": "Q15180",
        "Wikidata Qid": "Q132773923"
      }
    },
    {
      "type": "Feature",
      "geometry": {
        "type": "Point",
        "coordinates": [
          46.553478,
          56.33745
        ]
      },
      "properties": {
        "label": "Kopir",
        "type": "Industrial building",
        "entity": "http://www.wikidata.org/entity/Q132157053",
        "country_qid": "Q15180",
        "Wikidata Qid": "Q132157053"
      }
    },
    {
      "type": "Feature",
      "geometry": {
        "type": "Point",
        "coordinates": [
          32.655855,
          52.854606
        ]
      },
      "properties": {
        "label": "Rezistor",
        "type": "Industrial building",
        "entity": "http://www.wikidata.org/entity/Q131937692",
        "country_qid": "Q15180",
        "Wikidata Qid": "Q131937692"
      }
    },
    {
      "type": "Feature",
      "geometry": {
        "type": "Point",
        "coordinates": [
          37.69651,
          55.68522
        ]
      },
      "properties": {
        "label": "Moscow shipbuilding and ship repair plant",
        "type": "Industrial building",
        "entity": "http://www.wikidata.org/entity/Q98835174",
        "country_qid": "Q15180",
        "Wikidata Qid": "Q98835174"
      }
    },
    {
      "type": "Feature",
      "geometry": {
        "type": "Point",
        "coordinates": [
          30.379986,
          53.908718
        ]
      },
      "properties": {
        "label": "Technopribor",
        "type": "Industrial building",
        "entity": "http://www.wikidata.org/entity/Q132578171",
        "country_qid": "Q15180",
        "Wikidata Qid": "Q132578171"
      }
    },
    {
      "type": "Feature",
      "geometry": {
        "type": "Point",
        "coordinates": [
          44.2352,
          43.066049
        ]
      },
      "properties": {
        "label": "Alagir resistor plant",
        "type": "Industrial building",
        "entity": "http://www.wikidata.org/entity/Q132212961",
        "country_qid": "Q15180",
        "Wikidata Qid": "Q132212961"
      }
    },
    {
      "type": "Feature",
      "geometry": {
        "type": "Point",
        "coordinates": [
          44.6562,
          43.045791
        ]
      },
      "properties": {
        "label": "Razryad",
        "type": "Industrial building",
        "entity": "http://www.wikidata.org/entity/Q131922929",
        "country_qid": "Q15180",
        "Wikidata Qid": "Q131922929"
      }
    },
    {
      "type": "Feature",
      "geometry": {
        "type": "Point",
        "coordinates": [
          37.610805,
          57.361178
        ]
      },
      "properties": {
        "label": "Kashin electrical apparatus plant",
        "type": "Industrial building",
        "entity": "http://www.wikidata.org/entity/Q132776284",
        "country_qid": "Q15180",
        "Wikidata Qid": "Q132776284"
      }
    },
    {
      "type": "Feature",
      "geometry": {
        "type": "Point",
        "coordinates": [
          41.492523,
          52.587806
        ]
      },
      "properties": {
        "label": "Almaz",
        "type": "Industrial building",
        "entity": "http://www.wikidata.org/entity/Q131711747",
        "country_qid": "Q15180",
        "Wikidata Qid": "Q131711747"
      }
    },
    {
      "type": "Feature",
      "geometry": {
        "type": "Point",
        "coordinates": [
          24.478555,
          52.562053
        ]
      },
      "properties": {
        "label": "Pružany Radio Component Plant",
        "type": "Industrial building",
        "entity": "http://www.wikidata.org/entity/Q132158036",
        "country_qid": "Q15180",
        "Wikidata Qid": "Q132158036"
      }
    },
    {
      "type": "Feature",
      "geometry": {
        "type": "Point",
        "coordinates": [
          37.510171,
          56.333756
        ]
      },
      "properties": {
        "label": "Dmitrov knitwear",
        "type": "Industrial building",
        "entity": "http://www.wikidata.org/entity/Q131921429",
        "country_qid": "Q15180",
        "Wikidata Qid": "Q131921429"
      }
    },
    {
      "type": "Feature",
      "geometry": {
        "type": "Point",
        "coordinates": [
          44.8463,
          41.0881
        ]
      },
      "properties": {
        "label": "Teghut copper-molybdenum deposit",
        "type": "Mine",
        "entity": "http://www.wikidata.org/entity/Q4456930",
        "country_qid": "Q15180",
        "Wikidata Qid": "Q4456930"
      }
    },
    {
      "type": "Feature",
      "geometry": {
        "type": "Point",
        "coordinates": [
          57.642797,
          59.004901
        ]
      },
      "properties": {
        "label": "Q4399552",
        "type": "Mine",
        "entity": "http://www.wikidata.org/entity/Q4399552",
        "country_qid": "Q15180",
        "Wikidata Qid": "Q4399552"
      }
    },
    {
      "type": "Feature",
      "geometry": {
        "type": "Point",
        "coordinates": [
          47.4654,
          80.8513
        ]
      },
      "properties": {
        "label": "Weather Station Schatzgräber",
        "type": "Weather station",
        "entity": "http://www.wikidata.org/entity/Q2566035",
        "country_qid": "Q15180",
        "Wikidata Qid": "Q2566035"
      }
    }
  ]
}