{
  "type": "FeatureCollection",
  "features": [
    {
      "type": "Feature",
      "geometry": {
        "type": "Point",
        "coordinates": [
          9.7442467,
          52.3642717
        ]
      },
      "properties": {
        "label": "Q124694021",
        "type": "Industrial building",
        "entity": "http://www.wikidata.org/entity/Q124694021",
        "country_qid": "Q41304",
        "Wikidata Qid": "Q124694021"
      }
    },
    {
      "type": "Feature",
      "geometry": {
        "type": "Point",
        "coordinates": [
          13.367995219,
          52.56872715
        ]
      },
      "properties": {
        "label": "Q118669324",
        "type": "Industrial building",
        "entity": "http://www.wikidata.org/entity/Q118669324",
        "country_qid": "Q41304",
        "Wikidata Qid": "Q118669324"
      }
    },
    {
      "type": "Feature",
      "geometry": {
        "type": "Point",
        "coordinates": [
          8.998261571,
          49.680256145
        ]
      },
      "properties": {
        "label": "Continental-Gelatine-Industrie",
        "type": "Industrial building",
        "entity": "http://www.wikidata.org/entity/Q125869182",
        "country_qid": "Q41304",
        "Wikidata Qid": "Q125869182"
      }
    }
  ]
}